District Code,District,Street,City,City,Zip,Address,Latitude,Longitude,Address_formatted,confidence,confidence_city_level,confidence_street_level
3900,Innocademy Allegan Campus,2611 56th St,Fennville,MI,49408,"2611 56th St, Fennville, MI 49408",42.60976975,-86.09459365,"2611 56th Street, Fennville, MI 49408, United States of America",1,1,1
3901,Discovery Elementary School,P.O. Box 990,Fennville,MI,49408,"P.O. Box 990, Fennville, MI 49408",42.5941052,-86.1045955,"Fennville, MI, United States of America",1,1,
3902,Outlook Academy,310 Thomas St,Allegan,MI,49010,"310 Thomas St, Allegan, MI 49010",42.51765262,-85.86004762,"310 Thomas Street, Allegan, MI 49010, United States of America",1,1,1
3902,Outlook Academy,2879 116th Ave,Allegan,MI,49010,"2879 116th Ave, Allegan, MI 49010",42.53513924,-85.82561616,"2879 116th Avenue, Watson, MI 49010, United States of America",1,1,1
3902,Outlook Academy,2243 33rd St,Allegan,MI,49010,"2243 33rd St, Allegan, MI 49010",42.58195671,-85.869328,"2243 33rd Street, Allegan Township, MI 49010, United States of America",1,1,1
4901,Bingham Arts Academy,555 S Fifth Ave,Alpena,MI,49707,"555 S Fifth Ave, Alpena, MI 49707",45.06253875,-83.44194036,"Bingham School, 555 South 5th Avenue, Alpena, MI 49707, United States of America",0.4,1,0.4
5901,Concord Montessori and Community School,5055 Corey Rd,Mancelona,MI,49659,"5055 Corey Rd, Mancelona, MI 49659",44.960193,-84.989241,"5055 Corey Road, Chestonia Township, MI 49659, United States of America",1,1,1
9901,Bay-Arenac Community High School,805 Langstaff St,Essexville,MI,48732,"805 Langstaff St, Essexville, MI 48732",43.61200741,-83.83954963,"805 Langstaff Street, Essexville, MI 48732, United States of America",1,1,1
9902,State Street Academy,1110 State St,Bay City,MI,48706,"1110 State St, Bay City, MI 48706",43.6166707,-83.8945477,"1110 State Street, Bay City, MI 48706, United States of America",1,1,1
9903,Bay City Academy,301 N Farragut St,Bay City,MI,48708,"301 N Farragut St, Bay City, MI 48708",43.592511,-83.879847,"301 North Farragut Street, Bay City, MI 48708, United States of America",1,1,1
9903,Bay City Academy,809 Saginaw St,Bay City,MI,48708,"809 Saginaw St, Bay City, MI 48708",43.59832988,-83.88902539,"809 Saginaw Street, Bay City, MI 48708, United States of America",1,1,1
9903,Bay City Academy,311 Germania St,Bay City,MI,48706,"311 Germania St, Bay City, MI 48706",43.59051345,-83.90047553,"311 Germania Street, Bay City, MI 48706, United States of America",1,1,1
9903,Bay City Academy,400 N. Madison Avenue,Bay City,MI,48708,"400 N. Madison Avenue, Bay City, MI 48708",43.593903,-83.884983,"400 North Madison Avenue, Bay City, MI 48708, United States of America",1,1,1
9903,Bay City Academy,120 N Jackson St,Bay City,MI,48708,"120 N Jackson St, Bay City, MI 48708",43.58965702,-83.88346196,"120 North Jackson Street, Bay City, MI 48708, United States of America",1,1,1
9903,Bay City Academy,301 North Farragut St,Bay City,MI,48708,"301 North Farragut St, Bay City, MI 48708",43.592511,-83.879847,"301 North Farragut Street, Bay City, MI 48708, United States of America",1,1,1
11900,Bridge Academy of Southwest Michigan,499 W Main St,Benton Harbor,MI,49022,"499 W Main St, Benton Harbor, MI 49022",42.11360712,-86.46582411,"499 West Main Street, Benton Harbor, MI 49022, United States of America",1,1,1
11901,Countryside Academy,4800 Meadowbrook Rd,Benton Harbor,MI,49022,"4800 Meadowbrook Rd, Benton Harbor, MI 49022",42.07938287,-86.34188488,"4800 Meadowbrook Road, Benton Charter Township, MI 49022, United States of America",1,1,1
11901,Countryside Academy,4821 North St,Benton Harbor,MI,49022,"4821 North St, Benton Harbor, MI 49022",42.1235485,-86.341735,"4821 North Street, Benton Charter Township, MI 49022, United States of America",1,1,1
11902,Pathfinder Charter Academy,300 East Napier,Benton Harbor,MI,49022,"300 East Napier, Benton Harbor, MI 49022",42.0939744,-86.296253,"East Napier Avenue, Bainbridge Township, MI 49022, United States of America",0.45,1,0.9
11903,Benton Harbor Charter School Academy,455 Riverview Dr # 1,Benton Harbor,MI,49022,"455 Riverview Dr # 1, Benton Harbor, MI 49022",42.10975096,-86.46512961,"455 Riverview Drive, Benton Harbor, MI 49022, United States of America",1,1,1
11903,Benton Harbor Charter School Academy,455 Riverview Dr,Benton Harbor,MI,49022,"455 Riverview Dr, Benton Harbor, MI 49022",42.10975096,-86.46512961,"455 Riverview Drive, Benton Harbor, MI 49022, United States of America",1,1,1
11904,Mildred C. Wells Preparatory Academy,248 9th St,Benton Harbor,MI,49022,"248 9th St, Benton Harbor, MI 49022",42.11363141,-86.45899076,"248 9th Street, Benton Harbor, MI 49022, United States of America",1,1,1
11905,Dream Academy,248 9th St,Benton Harbor,MI,49022,"248 9th St, Benton Harbor, MI 49022",42.11363141,-86.45899076,"248 9th Street, Benton Harbor, MI 49022, United States of America",1,1,1
12901,Pansophia Academy,52 Abbott Ave,Coldwater,MI,49036,"52 Abbott Ave, Coldwater, MI 49036",41.950176,-84.998064,"52 Abbott Avenue, Coldwater, MI 49036, United States of America",1,1,1
13900,Battle Creek Montessori Academy,399 20th St N,Springfield,MI,49037,"399 20th St N, Springfield, MI 49037",42.321223,-85.220761,"399 North 20th Street, Battle Creek, MI 49037, United States of America",0,1,
13901,Arbor Academy,55 Arbor St,Battle Creek,MI,49015,"55 Arbor St, Battle Creek, MI 49015",42.30264512,-85.21396743,"55 Arbor Street, Battle Creek, MI 49015, United States of America",1,1,1
13902,Endeavor Charter Academy,380 Helmer Rd N,Springfield,MI,49037,"380 Helmer Rd N, Springfield, MI 49037",42.32391905,-85.23811783,"Endeavor Charter Academy, 380 North Helmer Road, Springfield, MI 49037, United States of America",0,1,
13902,Endeavor Charter Academy,380 Helmer Rd N,Battle Creek,MI,49037,"380 Helmer Rd N, Battle Creek, MI 49037",42.32391905,-85.23811783,"Endeavor Charter Academy, 380 North Helmer Road, Springfield, MI 49037, United States of America",0,1,
13903,Marshall Academy,18203 Homer Rd,Marshall,MI,49068,"18203 Homer Rd, Marshall, MI 49068",42.2510891,-84.94083446,"18203 Homer Road, Marshall, MI 49068, United States of America",1,1,1
13904,Battle Creek Area Learning Center,765 Upton Ave,Springfield,MI,49037,"765 Upton Ave, Springfield, MI 49037",42.32233379,-85.22511525,"765 Upton Avenue, Springfield, MI 49037, United States of America",1,1,1
13905,Lakeside Charter School - Albion,13725 26 Mile Rd,Albion,MI,49224,"13725 26 Mile Rd, Albion, MI 49224",42.282176,-84.800891,"26 Mile Road, Sheridan Township, MI 49224, United States of America",0.5,1,1
13905,Lakeside Charter School - Albion,13725 Starr Commonwealth Road,Albion,MI,49224,"13725 Starr Commonwealth Road, Albion, MI 49224",,,,,,
15901,Concord Academy - Boyne,401 E Dietz Rd,Boyne City,MI,49712,"401 E Dietz Rd, Boyne City, MI 49712",45.19031784,-84.97244415,"401 East Dietz, Boyne Valley Township, MI 49712, United States of America",0.9,1,0.9
15902,Charlevoix Academy,115 West Hurlbut St,Charlevoix,MI,49720,"115 West Hurlbut St, Charlevoix, MI 49720",45.280508,-85.245172,"Marion Township, MI 49720, United States of America",0.25,1,
15902,Charlevoix Academy,8700 Mercer Rd,Charlevoix,MI,49720,"8700 Mercer Rd, Charlevoix, MI 49720",45.33070914,-85.24045163,"8700 Mercer Road, Charlevoix, MI 49720, United States of America",1,1,1
17900,Lake Superior Academy,8936 S Mackinac Trl,Sault S Marie,MI,49783,"8936 S Mackinac Trl, Sault S Marie, MI 49783",46.37712712,-84.40525633,"8936 South Mackinac Trail, Dafter Township, MI 49783, United States of America",1,1,1
17901,Joseph K. Lumsden Bahweting Anishnabe Academy,1301 Marquette Ave,Sault Sainte Marie,MI,49783,"1301 Marquette Ave, Sault Sainte Marie, MI 49783",46.480962,-84.332604,"1301 Marquette Avenue, Sault Ste. Marie, MI 49783, United States of America",1,1,1
17902,Ojibwe Charter School,12099 W Lakeshore Dr,Brimley,MI,49715,"12099 W Lakeshore Dr, Brimley, MI 49715",46.450491,-84.600999,"12099 West Lakeshore Drive, Bay Mills, MI 49715, United States of America",1,1,1
17902,Ojibwe Charter School,11507 W Industrial Dr,Brimley,MI,49715,"11507 W Industrial Dr, Brimley, MI 49715",46.4503974,-84.6028953,"Ojibwe Charter School, 11507 West Industrial Drive, Brimley, MI 49715, United States of America",1,1,1
17903,DeTour Arts and Technology Academy,202 Division St,De Tour Village,MI,49725,"202 Division St, De Tour Village, MI 49725",45.99299864,-83.90548375,"202 Division Street, DeTour Village, MI 49725, United States of America",1,1,1
3169,Michigan International Prep School - Elsie,8989 E Colony Rd,Elsie,MI,48831,"8989 E Colony Rd, Elsie, MI 48831",43.0471271,-84.39271137,"Ovid-Elsie High School, 8989 East Colony Road, Elsie, MI 48831, United States of America",1,1,1
19900,Michigan International Prep School,3750 Cleary Dr,Howell,MI,48843,"3750 Cleary Dr, Howell, MI 48843",42.58746595,-83.88048113,"Cleary University, 3750 Cleary Drive, Howell, MI 48843, United States of America",1,1,1
19900,Michigan International Prep School,7034 E Court St ,Davison,MI,48423,"7034 E Court St., Davison, MI 48423",42.58746595,-83.88048113,"7034 E Court St., Davison, MI 48423, United States of America",1,1,1
19900,Michigan International Prep School,2715 State St,Saginaw,MI,48602,"2715 State St, Saginaw, MI 48602",43.43653847,-83.97585488,"2715 State Street, Saginaw, MI 48602, United States of America",1,1,1
20901,Kenquest Academy,Warriner Hall 265,Mt. Pleasant,MI,48859,"Warriner Hall 265, Mt. Pleasant, MI 48859",43.59114755,-84.77505593,"Warriner Hall, Franklin Street, Mount Pleasant, MI 48859, United States of America",0.666666667,1,
20901,Kenquest Academy,1135 North Old 27,Grayling,MI,49738,"1135 North Old 27, Grayling, MI 49738",44.701122,-84.733525,"1135 North Old US 27, Grayling, MI 49738, United States of America",0.9,1,0.9
23900,LifeTech Academy,854 Elmwood Rd,Lansing,MI,48917,"854 Elmwood Rd, Lansing, MI 48917",42.7432013,-84.6223938,"854 Elmwood Road, Lansing, MI 48917, United States of America",1,1,1
23900,LifeTech Academy,3101 Discovery Dr # A,Lansing,MI,48910,"3101 Discovery Dr # A, Lansing, MI 48910",42.699863,-84.516001,"3101 Manley Drive, Lansing, MI 48910, United States of America",0.63,1,0.63
23901,Island City Academy,6421 S Clinton Trl,Eaton Rapids,MI,48827,"6421 S Clinton Trl, Eaton Rapids, MI 48827",42.47363806,-84.65954371,"6421 South Clinton Trail, Eaton Rapids, MI 48827, United States of America",1,1,1
23902,Relevant Academy of Eaton County,220 Lamson St,Grand Ledge,MI,48837,"220 Lamson St, Grand Ledge, MI 48837",42.74995794,-84.74849155,"220 Lamson Street, Grand Ledge, MI 48837, United States of America",1,1,1
23903,Insight School of Michigan,526 S Creyts Rd,Lansing,MI,48917,"526 S Creyts Rd, Lansing, MI 48917",42.72866182,-84.64240952,"526 South Creyts Road, Delta Charter Township, MI 48917, United States of America",1,1,1
24901,Concord Academy - Petoskey,2468 Atkins Rd,Petoskey,MI,49770,"2468 Atkins Rd, Petoskey, MI 49770",45.36288207,-84.91940076,"2468 Atkins Road, Bear Creek Township, MI 49770, United States of America",1,1,1
24901,Concord Academy - Petoskey,2240 E. Mitchell,Petoskey,MI,49770,"2240 E. Mitchell, Petoskey, MI 49770",45.373371,-84.922452,"2240 East Mitchell Road, Petoskey, MI 49770, United States of America",0.7,1,0.7
25900,Genesee STEM Academy,5240 Calkins Road,Flint,MI,48532,"5240 Calkins Road, Flint, MI 48532",43.0166521,-83.78204243,"5240 Calkins Road, Flint Charter Township, MI 48532, United States of America",1,1,1
25901,Questar Academy,5106 Calkins Road,Flint,MI,48532,"5106 Calkins Road, Flint, MI 48532",43.01665706,-83.77752304,"5106 Calkins Road, Flint Charter Township, MI 48532, United States of America",1,1,1
25902,Woodland Park Academy,2083 E Grand Blanc Rd,Grand Blanc,MI,48439,"2083 E Grand Blanc Rd, Grand Blanc, MI 48439",42.91524671,-83.66877098,"2083 East Grand Blanc Road, Genesee County, MI 48439, United States of America",1,1,1
25903,Grand Blanc Academy,5135 E Hill Rd,Grand Blanc,MI,48439,"5135 E Hill Rd, Grand Blanc, MI 48439",42.94529119,-83.60642829,"5135 East Hill Road, Genesee County, MI 48439, United States of America",1,1,1
25904,Northridge Academy,4100 W Coldwater Rd,Flint,MI,48504,"4100 W Coldwater Rd, Flint, MI 48504",43.091912,-83.757324,"4100 Coldwater Road, Flint, MI 48504, United States of America",0.9,1,0.9
25905,International Academy of Flint,2820 S Saginaw St,Flint,MI,48503,"2820 S Saginaw St, Flint, MI 48503",42.99690843,-83.67807986,"2820 South Saginaw Street, Flint, MI 48503, United States of America",1,1,1
25905,International Academy of Flint,460 W. Atherton,Flint,MI,48507,"460 W. Atherton, Flint, MI 48507",42.99049,-83.680235,"460 West Atherton Road, Flint, MI 48507, United States of America",0.7,1,0.7
25906,Center Academy,310 West Oakley St,Flint,MI,48503,"310 West Oakley St, Flint, MI 48503",42.99710172,-83.68084336,"310 West Oakley Street, Flint, MI 48503, United States of America",1,1,1
25907,Linden Charter Academy,3244 N Linden Rd,Flint,MI,48504,"3244 N Linden Rd, Flint, MI 48504",43.05391194,-83.77270302,"3244 North Linden Road, Mount Morris Charter Township, MI 48504, United States of America",1,1,1
25908,Academy of Flint,Po Box 310716,Flint,MI,48531,"Po Box 310716, Flint, MI 48531",43.0161693,-83.6900211,"Flint, MI, United States of America",1,1,
25909,Burton Glen Charter Academy,4171 E Atherton Rd,Burton,MI,48519,"4171 E Atherton Rd, Burton, MI 48519",42.98970186,-83.62684986,"4171 East Atherton Road, Burton, MI 48519, United States of America",1,1,1
25910,Richfield Public School Academy,3807 N Center Rd,Flint,MI,48506,"3807 N Center Rd, Flint, MI 48506",43.04988685,-83.63585704,"3807 North Center Road, Flint, MI 48506, United States of America",1,1,1
25910,Richfield Public School Academy,6103 Eagle Ridge Ln,Flint,MI,48505,"6103 Eagle Ridge Ln, Flint, MI 48505",43.067398,-83.686304,"6103 Eagle Ridge Lane, Flint, MI 48505, United States of America",1,1,1
25910,Richfield Public School Academy,460 West Atherton Road,Flint,MI,48507,"460 West Atherton Road, Flint, MI 48507",42.98897838,-83.67997696,"460 West Atherton Road, Flint, MI 48507, United States of America",1,1,1
9450,Madison Academy -  Elementary/Middle School,6170 Torrey Rd,Flint,MI,48507,"6170 Torrey Rd, Flint, MI 48507",42.93935143,-83.73171692,"6170 Torrey Road, Mundy Charter Township, MI 48507, United States of America",1,1,1
499,Madison Academy - High School,3266 S Genesee Rd,Burton,MI,48519,"3266 S Genesee Rd, Burton, MI 48519",42.9823824,-83.61402839,"3266 South Genesee Road, Burton, MI 48519, United States of America",1,1,1
25912,The New Standard Academy,2040 W Carpenter Rd,Flint,MI,48505,"2040 W Carpenter Rd, Flint, MI 48505",43.07749005,-83.71566432,"The New Standard Academy, 2040 West Carpenter Road, Flint, MI 48505, United States of America",1,1,1
25913,Alternative Path Academy,5306 North St,Flint,MI,48505,"5306 North St, Flint, MI 48505",43.06208071,-83.6905098,"5306 North Street, Flint, MI 48505, United States of America",1,1,1
25914,Greater Heights Academy,3196 W Pasadena Ave,Flint,MI,48504,"3196 W Pasadena Ave, Flint, MI 48504",43.04625294,-83.73912032,"3196 West Pasadena Avenue, Flint, MI 48504, United States of America",1,1,1
25915,WAY Academy - Flint,817 E Kearsley St,Flint,MI,48503,"817 E Kearsley St, Flint                                                       , MI 48503",43.02099722,-83.68256398,"817 East Kearsley Street, Flint, MI 48503, United States of America",1,1,1
25915,WAY Academy - Flint,817 E Kearsley St,Flint,MI,48503,"817 E Kearsley St, Flint, MI 48503",43.02099722,-83.68256398,"817 East Kearsley Street, Flint, MI 48503, United States of America",1,1,1
25915,WAY Academy - Flint,555 Briarwood Cir,Ann Arbor,MI,48108,"555 Briarwood Cir, Ann Arbor, MI 48108",42.2417143,-83.74103815,"555 Briarwood Circle, Ann Arbor, MI 48108, United States of America",1,1,1
25916,Eagle's Nest Academy,5005 Cloverlawn Dr,Flint,MI,48504,"5005 Cloverlawn Dr, Flint, MI 48504",43.05952918,-83.72964237,"5005 Cloverlawn Drive, Flint, MI 48504, United States of America",1,1,1
25917,The Paris Academy,10751 S Saginaw St,Grand Blanc,MI,48439,"10751 S Saginaw St, Grand Blanc, MI 48439",42.936433,-83.640121,"10751 South Saginaw Street, Grand Blanc, MI 48439, United States of America",1,1,1
25918,Flex High School of Michigan - North Flint,4945 Clio Rd,Flint,MI,48504,"4945 Clio Rd, Flint, MI 48504",43.05772016,-83.73302114,"4945 Clio Road, Flint, MI 48504, United States of America",1,1,1
25918,Flex High School of Michigan - Burton Center,1245 S Center Rd,Burton,MI,48509,"1245 S Center Rd, Burton, MI 48509",43.0138141,-83.6347399,"1245 South Center Road, Burton, MI 48506, United States of America",1,1,1
25919,Flint Cultural Center Academy,1200 Robert T Longway Blvd,Flint,MI,48503,"1200 Robert T Longway Blvd, Flint, MI 48503",43.025476,-83.67867,"1200 Robert T Longway Boulevard, Flint, MI 48503, United States of America",1,1,1
26901,Creative Learning Academy,540 Lang Rd,Beaverton,MI,48612,"540 Lang Rd, Beaverton, MI 48612",43.8868761,-84.49618664,"540 Lang Road, Beaverton, MI 48612, United States of America",1,1,1
28900,Old Mission Peninsula School,2699 Island View Rd,Traverse City,MI,49686,"2699 Island View Rd, Traverse City, MI 49686",44.8724706,-85.5211356,"Old Mission Peninsula School, 2699 Island View Road, Traverse City, MI 49686, United States of America",1,1,1
28901,Woodland School,7224 Supply Rd,Traverse City,MI,49686,"7224 Supply Rd, Traverse City, MI 49686",44.68979425,-85.42861953,"Woodland School, 7224 Supply Road, Traverse City, MI 49686, United States of America",1,1,1
28902,Grand Traverse Academy,1245 Hammond Rd E,Traverse City,MI,49686,"1245 Hammond Rd E, Traverse City, MI 49686",44.717509,-85.552774,"1245 East Hammond Road, Traverse City, MI 49686, United States of America",1,1,1
28903,Traverse City College Preparatory Academy,1402 Carlisle Rd,Traverse City,MI,49686,"1402 Carlisle Rd, Traverse City, MI 49686",44.707076,-85.545027,"1402 Carlisle Road, East Bay Township, MI 49696, United States of America",0.441,0.441,0.441
28904,The Greenspire School  ,1026 Red Dr,Traverse City,MI,49684,"1026 Red Dr, Traverse City, MI 49684",44.75239305,-85.64688717,"Greenspire Middle School, 1026 Red Drive, Traverse City, MI 49684, United States of America",1,1,1
28904,The Greenspire School ,2200 Dendrinos Dr,Travse City,MI,49684,"2200 Dendrinos Dr, Travse City, MI 49684",44.742015,-85.619955,"2200 Dendrinos Drive, Garfield Township, MI 49684, United States of America",0.95,1,1
30901,Hillsdale Preparatory School,160 Mechanic Rd,Hillsdale,MI,49242,"160 Mechanic Rd, Hillsdale, MI 49242",41.934475,-84.68375,"Mechanic Road, Hillsdale, MI 49242, United States of America",0.5,1,1
30902,Will Carleton Charter School Academy,2001 W Hallett Rd,Hillsdale,MI,49242,"2001 W Hallett Rd, Hillsdale, MI 49242",41.912706,-84.651112,"2001 West Hallett Road, Hillsdale, MI, United States of America",1,1,1
31900,Copper Island Academy,52125 Industrial DR. N.,Calumet,MI,49913,"52125 Industrial DR. N., Calumet, MI 49913",47.247416,-88.454578,"Calumet (Calumet), MI 49913, United States of America",0.25,1,
33900,Insight School of Michigan,"6512 Centurion, Suite 320",Lansing,MI,48917,"6512 Centurion, Suite 320, Lansing, MI 48917",42.7236082,-84.6449764,"Insight School of Michigan, 6512 Centurion Drive, Lansing, MI 48917, United States of America",0.9,1,0.9
33901,Cole Academy,1915 W Mount Hope Ave,Lansing,MI,48910,"1915 W Mount Hope Ave, Lansing, MI 48910",42.71199571,-84.57787271,"1915 West Mount Hope Avenue, Lansing, MI 48910, United States of America",1,1,1
33901,Cole Academy -  East,2921 E Coleman Rd,East Lansing,MI,48823,"2921 E Coleman Rd, East Lansing, MI 48823",42.77409355,-84.50549902,"Cole Academy East, 2921 Coleman Road, East Lansing, MI 48823, United States of America",0.9,1,0.9
33902,El-Hajj Malik El-Shabazz Academy,1028 West Barnes Ave,Lansing,MI,48910,"1028 West Barnes Ave, Lansing, MI 48910",42.71487174,-84.56647786,"1028 West Barnes Avenue, Lansing, MI 48910, United States of America",1,1,1
33903,Sankofa Shule Academy,4817 Bristol Street,Lansing,MI,48910,"4817 Bristol Street, Lansing, MI 48910",42.68629542,-84.5743946,"4817 Bristol Street, Lansing, MI 48910, United States of America",1,1,1
33903,Sankofa Shule Academy,4817 Bristol Road,Lansing,MI,48910,"4817 Bristol Road, Lansing, MI 48910",42.684811,-84.574105,"4817 Bristol Street, Lansing, MI 48910, United States of America",0,1,
33904,Mid-Michigan Leadership Academy,730 W Maple St,Lansing,MI,48906,"730 W Maple St, Lansing, MI 48906",42.7469205,-84.5607742,"730 West Maple Street, Lansing, MI 48906, United States of America",1,1,1
33905,Walter French Academy,1900 S. Cedar Street,Lansing,MI,48910,"1900 S. Cedar Street, Lansing, MI 48910",42.711849,-84.547899,"1900 South Cedar Street, Lansing, MI 48910, United States of America",1,1,1
33906,White Pine Academy,510 Russell St,Leslie,MI,49251,"510 Russell St, Leslie, MI 49251",42.4451047,-84.4281954,"510 Russell Street, Leslie, MI 49251, United States of America",1,1,1
33907,Capital Area Academy,5525 South Pennsylvania Ave,Lansing,MI,48911,"5525 South Pennsylvania Ave, Lansing, MI 48911",42.67757428,-84.53807465,"5525 South Pennsylvania Avenue, Lansing, MI 48910, United States of America",1,1,1
33908,New City Academy,2130 West Holmes Rd,Lansing,MI,48910,"2130 West Holmes Rd, Lansing, MI 48910",42.69765598,-84.58100865,"2130 West Holmes Road, Lansing, MI 48910, United States of America",1,1,1
33908,New City Academy,2130 West Holmes Rd # B,Lansing,MI,48910,"2130 West Holmes Rd # B, Lansing, MI 48910",42.698473,-84.581153,"2130 West Holmes Road, Lansing, MI 48910, United States of America",0.9,1,0.9
33909,Windemere Park Charter Academy,3100 W Saginaw St,Lansing,MI,48917,"3100 W Saginaw St, Lansing, MI 48917",42.741157,-84.592506,"3100 West Saginaw Street, Edgemont Park, MI 48917, United States of America",1,1,1
33910,Holly Park Academy,3300 Express Ct,Lansing,MI,48910,"3300 Express Ct, Lansing, MI 48910",42.6984513,-84.5742498,"Express Court, Lansing, MI 49811, United States of America",0.5,1,1
33911,Michigan Connections Academy,3950 Heritage Ave # 100,Okemos,MI,48864,"3950 Heritage Ave # 100, Okemos, MI 48864",42.69616246,-84.43668012,"3950 Heritage Avenue, Meridian Charter Township, MI 48864, United States of America",1,1,1
33911,Michigan Connections Academy,2140 University Park Dr # 270,Okemos,MI,48864,"2140 University Park Dr # 270, Okemos, MI 48864",42.67994754,-84.4280588,"2140 University Park Drive, Alaiedon Township, MI 48864, United States of America",1,1,1
33912,"Learn, Live, Lead Academy",3000 W. Miller Road,Lansing,MI,48910,"3000 W. Miller Road, Lansing, MI 48910",42.669772,-84.590645,"3000 West Miller Road, Lansing, MI 48911, United States of America",1,1,1
33913,NexTech High School of Lansing,2175 University Park Drive,Okemos,MI,48864,"2175 University Park Drive, Okemos, MI 48864",42.67997163,-84.42850304,"2175 University Park Drive, Alaiedon Township, MI 48864, United States of America",1,1,1
33914,Great Lakes Learning Academy,2875 Eyde Pkwy,East Lansing,MI,48823,"2875 Eyde Pkwy, East Lansing, MI 48823",42.7168439,-84.4543432,"2875 Eyde Parkway, Meridian Charter Township, MI 48823, United States of America",1,1,1
33915,Blended Learning Academies Credit Recovery High School,1754 E Clark Rd,Lansing,MI,48906,"1754 E Clark Rd, Lansing, MI 48906",42.81301625,-84.52794761,"1754 East Clark Road, DeWitt Charter Township, MI 48906, United States of America",1,1,1
33915,Blended Learning Academies Credit Recovery High School,30218 Plymouth Rd,Livonia,MI,48150,"30218 Plymouth Rd, Livonia, MI 48150",42.36900583,-83.3439696,"30218 Plymouth Road, Livonia, MI 48150, United States of America",1,1,1
34901,Noah Webster Academy,6403 Harwood Road,Ionia,MI,48846,"6403 Harwood Road, Ionia, MI 48846",42.89424514,-85.09461309,"6403 Harwood Road, Ionia, MI 48846, United States of America",1,1,1
35901,Sunrise Education Center,686 Aulerich Rd,East Tawas,MI,48730,"686 Aulerich Rd, East Tawas, MI 48730",44.29918402,-83.43406512,"686 Aulerich Road, Baldwin Township, MI 48730, United States of America",1,1,1
35902,Alternative Educational Academy of Iosco County,40 W M 55,Tawas City,MI,48763,"40 W M 55, Tawas City, MI 48763",44.2798297,-83.5196843,"M 55 East, Tawas City, MI 48764, United States of America",0.483,1,0.81
37900,Flextech High School Shepherd,380 W Blanchard Rd,Shepherd,MI,48883,"380 W Blanchard Rd, Shepherd, MI 48883",43.524384,-84.69253,"Coe Township (Shepherd), MI, United States of America",0.25,1,
37901,Renaissance Public School Academy,2797 S Isabella Rd,Mount Pleasant,MI,48858,"2797 S Isabella Rd, Mount Pleasant, MI 48858",43.59953393,-84.74756164,"2797 South Isabella Road, Mount Pleasant, MI 48858, United States of America",1,1,1
37902,Morey Montessori Public School Academy,418 W Blanchard Rd,Shepherd,MI,48883,"418 W Blanchard Rd, Shepherd, MI 48883",43.543728,-84.673886,"Coe Township, MI 48883, United States of America",0.25,1,
37902,Morey Montessori Public School Academy,418 West Blanchard Rd,Shepherd,MI,48883,"418 West Blanchard Rd, Shepherd, MI 48883",43.543728,-84.673886,"Coe Township, MI 48883, United States of America",0.25,1,
38900,Jackson Preparatory & Early College,2111 Emmons Rd,Jackson,MI,49201,"2111 Emmons Rd, Jackson, MI 49201",42.167426,-84.405481,"2111 Emmons Road, Summit Township, MI 49201, United States of America",1,1,1
38901,Da Vinci Schools,2985 Springport Rd,Jackson,MI,49202,"2985 Springport Rd, Jackson, MI 49202",42.2785554,-84.4317379,"Springport Road, Blackman Charter Township, MI 49202, United States of America",0.5,1,1
38901,Da Vinci Schools,555 Murphy Street,Jackson,MI,49202,"555 Murphy Street, Jackson, MI 49202",42.267179,-84.41085,"Jackson (Jackson), MI 49202, United States of America",0.25,1,
38901,Da Vinci Schools,2985 Springport Rd,Jackson,MI,49201,"2985 Springport Rd, Jackson, MI 49201",42.276502,-84.4525166,"2985 Springport Road, Blackman Charter Township, MI 49201, United States of America",1,1,1
38901,Da Vinci Schools,559 Murphy St,Jackson,MI,49202,"559 Murphy St, Jackson, MI 49202",42.267179,-84.41085,"Jackson (Jackson), MI 49202, United States of America",0.25,1,
38902,Paragon Charter Academy,3750 Mccain Rd,Jackson,MI,49201,"3750 Mccain Rd, Jackson, MI 49201",42.23491425,-84.46582161,"Paragon Charter Academy, 3750 McCain Road, Summit Township, MI 49201, United States of America",1,1,1
38903,Jackson Arts and Technology PSA,500 Griswold St,Jackson,MI,49203,"500 Griswold St, Jackson, MI 49203",42.23017121,-84.41657979,"500 Griswold Street, Jackson, MI 49203, United States of America",1,1,1
38904,Francis Street Primary School,1320 S Martin Luther King Jr Dr,Jackson,MI,49203,"1320 S Martin Luther King Jr Dr, Jackson, MI 49203",42.221835,-84.396625,"Summit Township, MI 49203, United States of America",0.25,1,
38904,Francis Street Primary School,1320 Francis Street,Jackson,MI,49203,"1320 Francis Street, Jackson, MI 49203",42.23254357,-84.40382818,"1320 Francis Street, Jackson, MI 49203, United States of America",1,1,1
39900,Lakeside Charter School - Kalamazoo,3921 Oakland Dr Frnt,Kalamazoo,MI,49008,"3921 Oakland Dr Frnt, Kalamazoo, MI 49008",42.263841,-85.617047,"Kalamazoo (Kalamazoo), MI 49008, United States of America",0.25,1,
39901,Navigator Academy,1340 Cobb Street,Kalamazoo,MI,49007,"1340 Cobb Street, Kalamazoo, MI 49007",42.302591,-85.588193,"Kalamazoo (Kalamazoo), MI 49007, United States of America",0.25,1,
39902,Family Institute Early Childhood Academy,505 S. Park Street,Kalamazoo,MI,49007,"505 S. Park Street, Kalamazoo, MI 49007",42.28730636,-85.58732,"505 South Park Street, Kalamazoo, MI 49007, United States of America",1,1,1
39903,Oakland Academy,6325 Oakland Dr,Portage,MI,49024,"6325 Oakland Dr, Portage, MI 49024",42.22548642,-85.61382024,"6325 Oakland Drive, Portage, MI 49024, United States of America",1,1,1
39904,Kalamazoo Advantage Academy,121 W. South Street,Kalamazoo,MI,49007,"121 W. South Street, Kalamazoo, MI 49007",42.28972249,-85.58356455,"121 West South Street, Kalamazoo, MI 49007, United States of America",1,1,1
39905,Paramount Charter Academy,3624 S Westnedge Ave,Kalamazoo,MI,49008,"3624 S Westnedge Ave, Kalamazoo, MI 49008",42.25530621,-85.58972979,"3624 South Westnedge Avenue, Kalamazoo, MI 49008, United States of America",1,1,1
39906,Youth Advancement Academy,6750 Chime St,Kalamazoo,MI,49009,"6750 Chime St, Kalamazoo, MI 49009",42.25622434,-85.67923197,"6750 Chime Street, Oshtemo Charter Township, MI 49009, United States of America",1,1,1
39907,Forest Academy,5196 Comstock Ave,Kalamazoo,MI,49048,"5196 Comstock Ave, Kalamazoo, MI 49048",42.2834872,-85.52736584,"5196 Comstock Avenue, Comstock Charter Township, MI 49048, United States of America",1,1,1
39908,Evergreen Academy,2121 Hudson Ave,Kalamazoo,MI,49008,"2121 Hudson Ave, Kalamazoo, MI 49008",42.271325,-85.596986,"2121 Hudson Avenue, Kalamazoo, MI 49008, United States of America",1,1,1
39909,Augusta Academy,600 West Michigan,Augusta,MI,49012,"600 West Michigan, Augusta, MI 49012",42.33518225,-85.35873545,"Child Development Center, 600 West Michigan Avenue, Augusta, MI 49012, United States of America",0.9,1,0.9
39910,Great Lakes Explorations Academy,6200 West Kalamazoo,Kalamazoo,MI,49009,"6200 West Kalamazoo, Kalamazoo, MI 49009",42.2813876,-85.6729283,"6200 West KL Avenue, Kalamazoo, MI, United States of America",0.729,1,0.81
39910,Great Lakes Explorations Academy,6200 West Kalamazoo Avenue,Kalamazoo,MI,49009,"6200 West Kalamazoo Avenue, Kalamazoo, MI 49009",42.2944731,-85.5853433,"West Kalamazoo Avenue, Kalamazoo, MI 49007, United States of America",0.5,1,1
39911,Kalamazoo Covenant Academy,404 W Crosstown Pkwy,Kalamazoo,MI,49001,"404 W Crosstown Pkwy, Kalamazoo, MI 49001",42.27617524,-85.5884608,"404 West Crosstown Parkway, Kalamazoo, MI 49001, United States of America",1,1,1
39911,Kalamazoo Covenant Academy,400 W Crosstown Pkwy,Kalamazoo,MI,49001,"400 W Crosstown Pkwy, Kalamazoo, MI 49001",42.276175,-85.588419,"400 West Crosstown Parkway, Kalamazoo, MI 49001, United States of America",1,1,1
41900,Covenant High School Grand Rapids,50 Antoine St Sw,Grand Rapids,MI,49507,"50 Antoine St Sw, Grand Rapids, MI 49507",42.94775729,-85.66902201,"50 Antoine Street Southwest, Grand Rapids, MI 49507, United States of America",1,1,1
41901,New Branches Charter Academy,3662 Poinsettia Ave Se,Grand Rapids,MI,49508,"3662 Poinsettia Ave Se, Grand Rapids, MI 49508",42.89747976,-85.63515614,"3662 Poinsettia Avenue Southeast, Grand Rapids, MI 49508, United States of America",1,1,1
41902,Horizons Community High School,1585 36th Street Sw,Wyoming,MI,49509,"1585 36th Street Sw, Wyoming, MI 49509",42.89898514,-85.70419014,"1585 36th Street Southwest, Wyoming, MI 49509, United States of America",1,1,1
41903,Innocademy Pyramid Campus,6100 E Paris Ave Se,Caledonia,MI,49316,"6100 E Paris Ave Se, Caledonia, MI 49316",42.85252308,-85.56534147,"6100 East Paris Avenue Southeast, Gaines Charter Township, MI 49316, United States of America",1,1,1
41904,West MI Academy of Environmental Science,4463 Leonard St Nw,Grand Rapids,MI,49534,"4463 Leonard St Nw, Grand Rapids, MI 49534",42.98694164,-85.77802636,"4463 Leonard Street Northwest, Walker, MI 49534, United States of America",1,1,1
41905,Excel Charter Academy,4201 Breton Rd Se,Grand Rapids,MI,49512,"4201 Breton Rd Se, Grand Rapids, MI 49512",42.932323,-85.6096,"Breton Road Southeast, East Grand Rapids, MI 49508, United States of America",0.45,0.9,0.9
41906,West MI Academy for Hospitality Science,1625 Leonard Street Ne,Grand Rapids,MI,49505,"1625 Leonard Street Ne, Grand Rapids, MI 49505",42.984522,-85.627526,"1625 Leonard Street Northeast, Grand Rapids, MI 49505, United States of America",1,1,1
41907,New School for Creative Learning,3950 Burton Se,Grand Rapids,MI,49546,"3950 Burton Se, Grand Rapids, MI 49546",42.926013,-85.570429,"3950 Burton Street SE, Grand Rapids, MI, United States of America",0.9,1,0.9
41908,Byron Center Charter School,9930 Burlingame Ave Sw,Byron Center,MI,49315,"9930 Burlingame Ave Sw, Byron Center, MI 49315",42.78390271,-85.70276371,"9930 Burlingame Avenue Southwest, Byron Center, MI 49315, United States of America",1,1,1
41909,Vista Charter Academy,711 32nd St Se,Grand Rapids,MI,49548,"711 32nd St Se, Grand Rapids, MI 49548",42.90569033,-85.64956573,"711 32nd Street Southeast, Wyoming, MI 49548, United States of America",1,1,1
41910,Vanguard Charter Academy,1620 52nd St Sw,Wyoming,MI,49519,"1620 52nd St Sw, Wyoming, MI 49519",42.86973927,-85.70441642,"1620 52nd Street Southwest, Wyoming, MI 49519, United States of America",1,1,1
41911,Flat River Academy,9481 Jordan Rd,Greenville,MI,48838,"9481 Jordan Rd, Greenville, MI 48838",43.16063141,-85.26179306,"9481 Jordan Road, Eureka Township, MI 48838, United States of America",1,1,1
41911,Flat River Academy,9481 Jordan Road,Greenville,MI,48838,"9481 Jordan Road, Greenville, MI 48838",43.16063141,-85.26179306,"9481 Jordan Road, Eureka Township, MI 48838, United States of America",1,1,1
41912,Academy of Health and Science,1710 Woodworth Street Ne,Grand Rapids,MI,49525,"1710 Woodworth Street Ne, Grand Rapids, MI 49525",43.03551049,-85.62754558,"1710 Woodworth Street Northeast, Plainfield Charter Township, MI 49525, United States of America",1,1,1
41913,Gateway Middle/High School,311 State Street Se,Grand Rapids,MI,49503,"311 State Street Se, Grand Rapids, MI 49503",42.960026,-85.660384,"311 State Street Southeast, Grand Rapids, MI 49503, United States of America",1,1,1
41914,Knapp Charter Academy,1759 Leffingwell Ave Ne,Grand Rapids,MI,49525,"1759 Leffingwell Ave Ne, Grand Rapids, MI 49525",42.99375305,-85.60286173,"Knapp Charter Academy, 1759 Leffingwell Avenue Northeast, Grand Rapids, MI 49525, United States of America",1,1,1
41915,Walker Charter Academy,1801 3 Mile Rd Nw,Grand Rapids,MI,49544,"1801 3 Mile Rd Nw, Grand Rapids, MI 49544",43.015109,-85.715154,"1801 3 Mile Road Northwest, Walker, MI 49544, United States of America",1,1,1
41916,Cross Creek Charter Academy,7701 Kalamazoo Ave Se,Byron Center,MI,49315,"7701 Kalamazoo Ave Se, Byron Center, MI 49315",42.8253069,-85.62601497,"7701 Kalamazoo Avenue Southeast, Caledonia Charter Township, MI 49315, United States of America",1,1,1
41917,William C. Abney Academy,1435 Fulton St E,Grand Rapids,MI,49503,"1435 Fulton St E, Grand Rapids, MI 49503",42.96371515,-85.634824,"1435 Fulton Street East, Grand Rapids, MI 49503, United States of America",1,1,1
41917,William C. Abney Academy,256 Alger Street,Grand Rapids,MI,49507,"256 Alger Street, Grand Rapids, MI 49507",42.919797,-85.660094,"256 Alger Street SE, Grand Rapids, MI 49507, United States of America",0.9,1,0.9
41918,Creative Technologies Academy,350 Pine St,Cedar Springs,MI,49319,"350 Pine St, Cedar Springs, MI 49319",43.2271468,-85.5597979,"350 West Pine Street Northeast, Cedar Springs, MI, United States of America",0.49,1,0.49
41919,Ridge Park Charter Academy,4120 Camelot Ridge Dr Se,Grand Rapids,MI,49546,"4120 Camelot Ridge Dr Se, Grand Rapids, MI 49546",42.92049132,-85.56848566,"4120 Camelot Ridge Drive Southeast, Kentwood, MI 49546, United States of America",1,1,1
41920,Chandler Woods Charter Academy,6895 Samrick Ave Ne,Belmont,MI,49306,"6895 Samrick Ave Ne, Belmont, MI 49306",43.08684587,-85.62900723,"6895 Samrick Avenue Northeast, Plainfield Charter Township, MI 49306, United States of America",1,1,1
41921,Grand Rapids Child Discovery Center,409 Lafayette Ave Se,Grand Rapids,MI,49503,"409 Lafayette Ave Se, Grand Rapids, MI 49503",42.95559773,-85.66190082,"409 Lafayette Avenue Southeast, Grand Rapids, MI 49503, United States of America",1,1,1
41922,Lighthouse Academy,3300 36th St Se,Grand Rapids,MI,49512,"3300 36th St Se, Grand Rapids, MI 49512",42.897905,-85.5851638,"3300 36th Street Southeast, Kentwood, MI 49512, United States of America",1,1,1
41922,Lighthouse Academy,4507 170th Ave,Hersey,MI,49639,"4507 170th Ave, Hersey, MI 49639",43.88007753,-85.4247636,"4507 170th Avenue, Hersey Township, MI 49639, United States of America",1,1,1
41922,Lighthouse Academy,12263 James St,Holland,MI,49424,"12263 James St, Holland, MI 49424",42.81214708,-86.08667807,"12263 James Street, Holland Charter Township, MI 49424, United States of America",1,1,1
41922,Lighthouse Academy,1260 Ekhart St Ne,Grand Rapids,MI,49503,"1260 Ekhart St Ne, Grand Rapids, MI 49503",42.98298766,-85.64009443,"1260 Ekhart Street Northeast, Grand Rapids, MI 49503, United States of America",1,1,1
41922,Lighthouse Academy,12120 Fillmore St,West Olive,MI,49460,"12120 Fillmore St, West Olive, MI 49460",42.94272236,-86.08351846,"12120 Fillmore Street, Olive Township, MI 49460, United States of America",0.95,1,1
41922,Lighthouse Academy,951 Mill St,East Jordan,MI,49727,"951 Mill St, East Jordan, MI 49727",45.15411976,-85.11187759,"951 Mill Street, East Jordan, MI 49727, United States of America",1,1,1
41922,Lighthouse Academy,3300 36th St Se,Kentwood,MI,49512,"3300 36th St Se, Kentwood, MI 49512",42.897905,-85.5851638,"3300 36th Street Southeast, Kentwood, MI 49512, United States of America",1,1,1
41922,Lighthouse Academy,2355 Knapp St Ne,Grand Rapids,MI,49505,"2355 Knapp St Ne, Grand Rapids, MI 49505",42.99889769,-85.61085488,"2355 Knapp Street Northeast, Grand Rapids, MI 49505, United States of America",1,1,1
41922,Lighthouse Academy,1565 Cedar St Ne,Grand Rapids,MI,49503,"1565 Cedar St Ne, Grand Rapids, MI 49503",42.980904,-85.631536,"1565 Cedar Street Northeast, Grand Rapids, MI 49503, United States of America",1,1,1
41922,Lighthouse Academy,703 Ball Ave Ne,Grand Rapids,MI,49503,"703 Ball Ave Ne, Grand Rapids, MI 49503",42.9754843,-85.6328618,"703 Ball Avenue Northeast, Grand Rapids, MI 49503, United States of America",1,1,1
41922,Lighthouse Academy,630 Harvey St,Muskegon,MI,49442,"630 Harvey St, Muskegon, MI 49442",43.24424639,-86.2038422,"630 Harvey Street, Muskegon, MI 49442, United States of America",1,1,1
41922,Lighthouse Academy,1501 Cedar St Ne,Grand Rapids,MI,49503,"1501 Cedar St Ne, Grand Rapids, MI 49503",42.980902,-85.633582,"1501 Cedar Street Northeast, Grand Rapids, MI 49503, United States of America",1,1,1
41922,Lighthouse Academy,1161 W Southern Ave,Muskegon,MI,49441,"1161 W Southern Ave, Muskegon, MI 49441",43.224348,-86.270815,"1161 West Southern Avenue, Muskegon, MI 49441, United States of America",1,1,1
41923,Wellspring Preparatory High School,1031 Page St Ne,Grand Rapids,MI,49505,"1031 Page St Ne, Grand Rapids, MI 49505",42.98661486,-85.64432867,"1031 Page Street Northeast, Grand Rapids, MI 49505, United States of America",1,1,1
41924,West Michigan Aviation Academy,5363 44th St Se,Grand Rapids,MI,49512,"5363 44th St Se, Grand Rapids, MI 49512",42.88426933,-85.53421643,"5363 44th Street Southeast, Kentwood, MI 49512, United States of America",1,1,1
41925,Michigan Virtual Charter Academy,1620 E Elza Ave,Hazel Park,MI,48030,"1620 E Elza Ave, Hazel Park, MI 48030",42.45176199,-83.08759721,"1620 East Elza Avenue, Hazel Park, MI 48030, United States of America",1,1,1
41926,Hope Academy of West Michigan,240 Brown St Se,Grand Rapids,MI,49507,"240 Brown St Se, Grand Rapids, MI 49507",42.93186112,-85.662028,"240 Brown Street Southeast, Grand Rapids, MI 49507, United States of America",1,1,1
41927,Grand Rapids Ellington Academy of Arts & Technology,670 Burton St Se,Grand Rapids,MI,49507,"670 Burton St Se, Grand Rapids, MI 49507",42.92743413,-85.65103685,"670 Burton Street Southeast, Grand Rapids, MI 49507, United States of America",1,1,1
41927,Grand Rapids Ellington Academy of Arts & Technology,"670 Burton Street, Se",Grand Rapids,MI,49507,"670 Burton Street, Se, Grand Rapids, MI 49507",42.926617,-85.65062,"670 Burton Street SE, Grand Rapids, MI 49507, United States of America",0.9,1,0.9
41928,River City Scholars Charter Academy,944 Evergreen St Se,Grand Rapids,MI,49507,"944 Evergreen St Se, Grand Rapids, MI 49507",42.93625478,-85.64530529,"944 Evergreen Street Southeast, Grand Rapids, MI 49507, United States of America",1,1,1
41929,NexTech High School,801 Broadway Ave Nw # 225,Grand Rapids,MI,49504,"801 Broadway Ave Nw # 225, Grand Rapids, MI 49504",42.977896,-85.679551,"801 Broadway Avenue Northwest, Grand Rapids, MI 49504, United States of America",1,1,1
41930,Grand River Preparatory High School,650 52nd St Se,Kentwood,MI,49548,"650 52nd St Se, Kentwood, MI 49548",42.86927401,-85.64872739,"650 52nd Street Southeast, Kentwood, MI 49548, United States of America",1,1,1
41930,Grand River Preparatory High School,650 52nd St Se,Grand Rapids,MI,49548,"650 52nd St Se, Grand Rapids, MI 49548",42.86927401,-85.64872739,"650 52nd Street Southeast, Kentwood, MI 49548, United States of America",1,1,1
41931,PrepNet Virtual Academy,3850 Broadmoor Ave Se,Grand Rapids,MI,49512,"3850 Broadmoor Ave Se, Grand Rapids, MI 49512",42.89336517,-85.57349104,"3850 Broadmoor Avenue Southeast, Kentwood, MI 49512, United States of America",1,1,1
41932,Gerald Dawkins Academy,1050 Fisk St Se,Grand Rapids,MI,49507,"1050 Fisk St Se, Grand Rapids, MI 49507",42.942329,-85.642641,"1050 Fisk Street SE, Grand Rapids, MI 49507, United States of America",1,1,1
44901,Chatfield School,231 Lake Dr,Lapeer,MI,48446,"231 Lake Dr, Lapeer, MI 48446",43.0475735,-83.3404559,"231 Lake Drive, Lapeer, MI 48446, United States of America",1,1,1
45901,Leelanau Montessori Public School Academy,7401 E Duck Lake Rd,Lake Leelanau,MI,49653,"7401 E Duck Lake Rd, Lake Leelanau, MI 49653",44.985665,-85.704791,"7401 East Duck Lake Road, Lake Leelanau, MI 49653, United States of America",1,1,1
47900,Light of the World Academy,550 E Hamburg St,Pinckney,MI,48169,"550 E Hamburg St, Pinckney, MI 48169",42.45952965,-83.94239482,"550 East Hamburg Street, Pinckney, MI 48169, United States of America",1,1,1
47901,Kensington Woods Schools,9501 Pettys Road,Lakeland,MI,48143,"9501 Pettys Road, Lakeland, MI 48143",42.45787655,-83.83663817,"Kensington Woods Schools, 9501 Pettys Road, Hamburg Township, MI 48143, United States of America",1,1,1
47902,Charyl Stockwell Academy,9758 E Highland Rd,Howell,MI,48843,"9758 E Highland Rd, Howell, MI 48843",42.629874,-83.759332,"9758 Highland Road, Howell, MI 48843, United States of America",0.9,1,0.9
47902,Charyl Stockwell Academy,1032 Karl Greimel Dr,Brighton,MI,48116,"1032 Karl Greimel Dr, Brighton, MI 48116",42.540604,-83.795097,"1032 Karl Greimel Drive, Brighton, MI 48116, United States of America",1,1,1
47902,Charyl Stockwell Academy,1021 Karl Greimel Dr,Brighton,MI,48116,"1021 Karl Greimel Dr, Brighton, MI 48116",42.5408,-83.796698,"1021 Karl Greimel Drive, Brighton, MI 48116, United States of America",1,1,1
47903,FlexTech High School,7707 Conference Center Dr,Brighton,MI,48114,"7707 Conference Center Dr, Brighton, MI 48114",42.55185511,-83.79780637,"7707 Conference Center Drive, Genoa Charter Township, MI 48114, United States of America",1,1,1
49901,Three Lakes Academy,W17540 Main Street,Curtis,MI,49820,"W17540 Main Street, Curtis, MI 49820",46.2063749,-85.7584018,"Three Lakes Academy, W17540 Main Street, Curtis, MI 49820, United States of America",1,1,1
50900,Oakland-Macomb Montessori Academy,17350 Wellington Ave,Roseville,MI,48066,"17350 Wellington Ave, Roseville, MI 48066",42.5070175,-82.9417915,"17350 Wellington Avenue, Roseville, MI 48066, United States of America",1,1,1
50901,Macomb Academy,39092 Garfield Rd,Clinton Township,MI,48038,"39092 Garfield Rd, Clinton Township, MI 48038",42.58426454,-82.95181271,"39092 Garfield Road, Clinton Township, MI 48038, United States of America",1,1,1
50902,Michigan Collegiate,16911 Eastland St,Roseville,MI,48066,"16911 Eastland St, Roseville, MI 48066",42.5131065,-82.9466955,"16911 Eastland Street, Roseville, MI 48066, United States of America",1,1,1
50902,Michigan Collegiate,31300 Ryan Rd,Warren,MI,48092,"31300 Ryan Rd, Warren, MI 48092",42.52315789,-83.06792257,"31300 Ryan Road, Warren, MI 48092, United States of America",1,1,1
50902,Michigan Collegiate,31330 Ryan Rd,Warren,MI,48092,"31330 Ryan Rd, Warren, MI 48092",42.52326008,-83.06792674,"31330 Ryan Road, Warren, MI 48092, United States of America",1,1,1
50903,Huron Academy,11401 Metropolitan Pkwy,Sterling Heights,MI,48312,"11401 Metropolitan Pkwy, Sterling Heights, MI 48312",42.56664583,-83.01125719,"11401 Metropolitan Parkway, Sterling Heights, MI 48312, United States of America",1,1,1
50903,Huron Academy,36301 Utica Rd,Clinton Township,MI,48035,"36301 Utica Rd, Clinton Township, MI 48035",42.56354598,-82.96626313,"36301 Utica Road, Clinton Township, MI 48035, United States of America",1,1,1
50903,Huron Academy,11401 Metro Pkwy,Sterling Hts,MI,48312,"11401 Metro Pkwy, Sterling Hts, MI 48312",42.567112,-83.012297,"11401 Metropolitan Parkway, Sterling Heights, MI 48312, United States of America",0.63,1,0.63
50904,Global Preparatory Academy,7460 E 10 Mile Rd. ,Center Line,MI,48015,"26200 Ridgemont, Roseville, MI 48066",42.493273,-82.954119,"7460 E 10 Mile Rd. Center Line. MI 48015, United States of America ",0.9,1,0.9
50904,Global Preparatory Academy,26200 Ridgemont,Roseville,MI,48066,"26200 Ridgemont, Roseville, MI 48066",42.493273,-82.954119,"26200 Ridgemont Avenue, Roseville, MI, United States of America",0.9,1,0.9
50904,Global Preparatory Academy,28111 Imperial Dr,Warren,MI,48093,"28111 Imperial Dr, Warren, MI 48093",42.50300022,-83.00068097,"28111 Imperial Drive, Warren, MI 48093, United States of America",1,1,1
50905,Arts Academy in the Woods,32101 Caroline,Fraser,MI,48026,"32101 Caroline, Fraser, MI 48026",42.532412,-82.951935,"32101 Caroline, Fraser, MI 48026, United States of America",1,1,1
50906,Merritt Academy,59900 Havenridge Rd,New Haven,MI,48048,"59900 Havenridge Rd, New Haven, MI 48048",42.74099885,-82.80171526,"59900 Havenridge Road, Macomb County, MI 48048, United States of America",1,1,1
50907,Great Lakes Anchor Academy,24475 Saint Francis St,Clinton Township,MI,48036,"24475 Saint Francis St, Clinton Township, MI 48036",42.58928199,-82.86430335,"24475 Saint Francis Street, Clinton Township, MI 48036, United States of America",1,1,1
50908,Mt. Clemens Montessori Academy,1070 Hampton Rd,Mount Clemens,MI,48043,"1070 Hampton Rd, Mount Clemens, MI 48043",42.5859217,-82.89177223,"1070 Hampton Road, Mount Clemens, MI 48043, United States of America",1,1,1
50909,Prevail Academy,353 Cass Ave,Mount Clemens,MI,48043,"353 Cass Ave, Mount Clemens, MI 48043",42.59830969,-82.89523608,"353 Cass Avenue, Mount Clemens, MI 48043, United States of America",1,1,1
50910,Ben Ross Public School Academy,8525 Cole Dr,Warren,MI,48093,"8525 Cole Dr, Warren, MI 48093",42.50879714,-83.01964496,"8525 Cole Drive, Warren, MI 48093, United States of America",1,1,1
50911,Academy of Warren,13943 E 8 Mile Rd,Warren,MI,48089,"13943 E 8 Mile Rd, Warren, MI 48089",42.44976507,-82.98189825,"13943 East 8 Mile Road, Warren, MI 48089, United States of America",1,1,1
50912,Reach Charter Academy,25275 Chippendale St,Roseville,MI,48066,"25275 Chippendale St, Roseville, MI 48066",42.48233225,-82.92387163,"25275 Chippendale Street, Roseville, MI 48066, United States of America",1,1,1
50913,Noor International Academy,37412 Dequindre Rd,Sterling Heights,MI,48310,"37412 Dequindre Rd, Sterling Heights, MI 48310",42.567005,-83.088785,"37412 Dequindre Road, Sterling Heights, MI 48310, United States of America",1,1,1
50914,Macomb Montessori Academy,14057 E 9 Mile Rd,Warren,MI,48089,"14057 E 9 Mile Rd, Warren, MI 48089",42.46403954,-82.98051114,"14057 East 9 Mile Road, Warren, MI 48089, United States of America",1,1,1
50915,Rising Stars Academy,23855 Lawrence,Center Line,MI,48015,"23855 Lawrence, Center Line, MI 48015",42.469924,-83.032226,"23855 Lawrence, Center Line, MI 48015, United States of America",1,1,1
50916,Success Mile Academy,27300 Dequindre Rd,Warren,MI,48092,"27300 Dequindre Rd, Warren, MI 48092",42.49283,-83.085072,"27300 Dequindre Road, Warren, MI 48092, United States of America",1,1,1
50916,Success Mile Academy,27300 Dequindre,Warren,MI,48902,"27300 Dequindre, Warren, MI 48902",42.4936975,-83.0838275,"Michigan Mathematics and Science Academy Dequindre, 27300 Dequindre Road, Warren, MI 48092, United States of America",0.9,1,0.9
50917,Red Oak Academy,11200 E 11 Mile Rd,Warren,MI,48089,"11200 E 11 Mile Rd, Warren, MI 48089",42.49140808,-83.01294359,"11200 East 11 Mile Road, Warren, MI 48089, United States of America",1,1,1
50918,Center Line Preparatory Academy,8155 Ritter,Center Line,MI,48015,"8155 Ritter, Center Line, MI 48015",42.4796966,-83.024344,"8155 Ritter Street, Center Line, MI 48015, United States of America",0.9,1,0.9
50919,Drive One Career Technical High School,15900 Common Rd,Roseville,MI,48066,"15900 Common Rd, Roseville, MI 48066",42.51633786,-82.95954277,"15900 Common Road, Roseville, MI 48066, United States of America",1,1,1
50920,New Dawn Academy of Warren,8200 Irving Rd,Sterling Hts,MI,48312,"8200 Irving Rd, Sterling Hts, MI 48312",42.54572194,-83.02680211,"8200 Irving Road, Sterling Heights, MI 48312, United States of America",1,1,1
51902,Newland Academy of Arts & Science,3031 Domres Road,Manistee,MI,49660,"3031 Domres Road, Manistee, MI 49660",44.307208,-86.24033772,"3031 Domres Road, Manistee Township, MI 49660, United States of America",1,1,1
51903,Casman Alternative Academy,225 9th St,Manistee,MI,49660,"225 9th St, Manistee, MI 49660",44.237076,-86.311718,"225 9th Street, Manistee, MI 49660, United States of America",1,1,1
51904,Shoreline Academy of Business and Trades,772 E. Parkdale Avenue,Manistee,MI,49660,"772 E. Parkdale Avenue, Manistee, MI 49660",44.27003894,-86.28827637,"772 East Parkdale Avenue, Parkdale, MI 49660, United States of America",1,1,1
51905,Michigan Great Lakes Virtual Academy,50 Filer St,Manistee,MI,49660,"50 Filer St, Manistee, MI 49660",44.24767659,-86.32011521,"50 Filer Street, Manistee, MI 49660, United States of America",1,1,1
52901,North Star Montessori Academy,3030 Wright St,Marquette,MI,49855,"3030 Wright St, Marquette, MI 49855",46.5558402,-87.45840746,"3030 Wright Street, Trowbridge Park, MI 49855, United States of America",1,1,1
52901,North Star Montessori Academy,3030 Wright Street,Marquette,MI,49855,"3030 Wright Street, Marquette, MI 49855",46.5558402,-87.45840746,"3030 Wright Street, Trowbridge Park, MI 49855, United States of America",1,1,1
53900,Mackinac Preparatory Academy,525 4th Street,Baldwin,MI,49304,"525 4th Street, Baldwin, MI 49304",43.88983404,-85.85717349,"525 4th Street, Baldwin, MI 49304, United States of America",1,1,1
53901,Gateway To Success Academy,526 N Scottville Rd,Scottville,MI,49454,"526 N Scottville Rd, Scottville, MI 49454",43.964272,-86.278304,"526 North Scottville Road, Scottville, MI 49454, United States of America",1,1,1
54901,Crossroads Charter Academy,215 N State St,Big Rapids,MI,49307,"215 N State St, Big Rapids, MI 49307",43.69996929,-85.48414429,"215 North State Street, Big Rapids, MI 49307, United States of America",1,1,1
54901,Crossroads Charter Academy,215 Spruce St W,Big Rapids,MI,49307,"215 Spruce St W, Big Rapids, MI 49307",43.6998835,-85.4872363,"215 West Spruce Street, Big Rapids, MI 49307, United States of America",1,1,1
55900,Uplift Michigan Academy,W526 Division St,Stephenson,MI,49887,"W526 Division St, Stephenson, MI 49887",45.417065,-87.608545,"Division Street, Stephenson, MI 49887, United States of America",0.5,1,1
55901,Nah Tah Wahsh Public School Academy,N14911 Hannahville Road B 1,Wilson,MI,49896,"N14911 Hannahville Road B 1, Wilson, MI 49896",,,,,,
56901,Windover High School,919 Smith Rd,Midland,MI,48640,"919 Smith Rd, Midland, MI 48640",43.616455,-84.28386138,"919 Smith Road, Midland, MI 48640, United States of America",1,1,1
56902,Midland Academy of Advanced and Creative Studies,4653 East Bailey Bridge Rd,Midland,MI,48640,"4653 East Bailey Bridge Rd, Midland, MI 48640",43.568651,-84.181502,"4653 Bailey Bridge Road, Midland, MI 48640, United States of America",0.9,1,0.9
56903,Academic and Career Education Academy,884 E Isabella Rd,Midland,MI,48640,"884 E Isabella Rd, Midland, MI 48640",43.611866,-84.335175,"884 East Isabella Road, Midland, MI 48640, United States of America",1,1,1
58901,New Bedford Academy,6315 Secor Rd,Lambertville,MI,48144,"6315 Secor Rd, Lambertville, MI 48144",41.7305516,-83.62674093,"New Bedford Academy, 6315 Secor Road, Lambertville, MI 48144, United States of America",1,1,1
58902,Triumph Academy,3000 Vivian Rd,Monroe,MI,48162,"3000 Vivian Rd, Monroe, MI 48162",41.95107498,-83.36536472,"3000 Vivian Road, Frenchtown Charter Township, MI 48162, United States of America",1,1,1
59900,Success Virtual Learning Centers of Michigan,7188 Avenue B,Vestaburg,MI,48891,"7188 Avenue B, Vestaburg, MI 48891",43.397251,-84.907631,"7188 B Avenue, Richland, MI 48891, United States of America",0,0.567,
59900,Success Virtual Learning Centers of Michigan,1850 S Dort Hwy,Flint,MI,48503,"1850 S Dort Hwy, Flint, MI 48503",43.00853576,-83.65429794,"1850 South Dort Highway, Flint, MI 48503, United States of America",1,1,1
59900,Success Virtual Learning Centers of Michigan,4328 Kalamazoo Ave Se,Grand Rapids,MI,49508,"4328 Kalamazoo Ave Se, Grand Rapids, MI 49508",42.88524572,-85.62594275,"4328 Kalamazoo Avenue Southeast, Kentwood, MI 49508, United States of America",1,1,1
59900,Success Virtual Learning Centers of Michigan,21800 John R Rd,Hazel Park,MI,48030,"21800 John R Rd, Hazel Park, MI 48030",42.455565,-83.103181,"21800 John R Road, Hazel Park, MI 48030, United States of America",1,1,1
59900,Success Virtual Learning Centers of Michigan,2501 S Cedar St,Lansing,MI,48910,"2501 S Cedar St, Lansing, MI 48910",42.7057588,-84.5475761,"2501 South Cedar Street, Lansing, MI 48910, United States of America",1,1,1
59900,Success Virtual Learning Centers of Michigan,5433 W Saginaw Hwy,Lansing,MI,48917,"5433 W Saginaw Hwy, Lansing, MI 48917",42.7410845,-84.6278919,"5433 West Saginaw Highway, Delta Charter Township, MI 48917, United States of America",1,1,1
59900,Success Virtual Learning Centers of Michigan,1000 S Monroe St,Monroe,MI,48161,"1000 S Monroe St, Monroe, MI 48161",41.90768325,-83.40521392,"1000 South Monroe Street, South Monroe, MI 48161, United States of America",1,1,1
59900,Success Virtual Learning Centers of Michigan,950 W Norton Ave # C,Muskegon,MI,49441,"950 W Norton Ave # C, Muskegon, MI 49441",43.1909721,-86.2670659,"Pints & Quarts, 950 West Norton Avenue, Roosevelt Park, MI 49441, United States of America",0.9,1,0.9
59900,Success Virtual Learning Centers of Michigan,1930 E Apple Ave,Muskegon,MI,49442,"1930 E Apple Ave, Muskegon, MI 49442",43.23429178,-86.19595793,"1930 East Apple Avenue, Muskegon Charter Township, MI 49442, United States of America",1,1,1
59900,Success Virtual Learning Centers of Michigan,945 W Huron St,Waterford,MI,48328,"945 W Huron St, Waterford, MI 48328",42.635063,-83.32741546,"945 West Huron Street, Waterford Township, MI 48328, United States of America",1,1,1
59900,Success Virtual Learning Centers of Michigan,24680 Eureka Rd,Taylor,MI,48180,"24680 Eureka Rd, Taylor, MI 48180",42.1974315,-83.27571867,"24680 Eureka Road, Taylor, MI 48180, United States of America",1,1,1
59900,Success Virtual Learning Centers of Michigan,336 Huron Ave,Port Huron,MI,48060,"336 Huron Ave, Port Huron, MI 48060",42.97791443,-82.42414012,"336 Huron Avenue, Port Huron, MI 48060, United States of America",1,1,1
59901,Threshold Academy,5827 Orleans Rd,Orleans,MI,48865,"5827 Orleans Rd, Orleans, MI 48865",43.07314991,-85.13537798,"5827 Orleans Road, Orleans, MI 48865, United States of America",1,1,1
61900,Muskegon Montessori Academy for Environmental Change,2950 Mccracken St,Norton Shores,MI,49441,"2950 Mccracken St, Norton Shores, MI 49441",43.19912555,-86.29260867,"2950 McCracken Street, Norton Shores, MI 49441, United States of America",1,1,1
61901,Tri-Valley Academy of Arts and Academics,2140 Valley Street,Muskegon,MI,49444,"2140 Valley Street, Muskegon, MI 49444",43.21322382,-86.22066559,"2140 Valley Street, Muskegon, MI 49444, United States of America",1,1,1
61902,Timberland Academy,2574 Mclaughlin Ave,Muskegon,MI,49442,"2574 Mclaughlin Ave, Muskegon, MI 49442",43.23043182,-86.18023821,"2574 McLaughlin Avenue, Muskegon Charter Township, MI 49442, United States of America",1,1,1
61903,WayPoint Academy,2900 East Apple Ave,Muskegon,MI,49442,"2900 East Apple Ave, Muskegon, MI 49442",43.234312,-86.170884,"2900 East Apple Avenue, Muskegon Charter Township, MI 49442, United States of America",1,1,1
61904,Three Oaks Public School Academy,1212 Kingsley St,Muskegon,MI,49442,"1212 Kingsley St, Muskegon, MI 49442",43.22851939,-86.22295827,"1212 Kingsley Street, Muskegon, MI 49442, United States of America",1,1,1
61905,Muskegon Heights Public School Academy System,2441 Sanford St,Muskegon Heights,MI,49444,"2441 Sanford St, Muskegon Heights, MI 49444",43.20796255,-86.24589984,"2441 Sanford Street, Muskegon Heights, MI 49444, United States of America",1,1,1
61905,Muskegon Heights Public School Academy System,55 E Sherman Blvd,Muskegon Heights,MI,49444,"55 E Sherman Blvd, Muskegon Heights, MI 49444",43.2044722,-86.24341931,"Dr. Martin Luther King Academy, 55 East Sherman Boulevard, Muskegon Heights, MI 49444, United States of America",1,1,1
61905,Muskegon Heights Public School Academy System,3028 Howden St,Muskegon Heights,MI,49444,"3028 Howden St, Muskegon Heights, MI 49444",43.19735557,-86.23757471,"3028 Howden Street, Muskegon Heights, MI 49444, United States of America",1,1,1
61905,Muskegon Heights Public School Academy System,3028 Howden St,Muskegon,MI,49444,"3028 Howden St, Muskegon, MI 49444",43.19735557,-86.23757471,"3028 Howden Street, Muskegon Heights, MI 49444, United States of America",1,1,1
61905,Muskegon Heights Public School Academy System,600 East Barney Ave,Muskegon,MI,49444,"600 East Barney Ave, Muskegon, MI 49444",43.210484,-86.229388,"600 East Barney Avenue, Muskegon Heights, MI 49444, United States of America",1,1,1
61905,Muskegon Heights Public School Academy System,600 East Barney,Muskegon Heights,MI,49444,"600 East Barney, Muskegon Heights, MI 49444",43.210587,-86.227776,"600 East Barney Avenue, Muskegon, MI 49444, United States of America",0.9,1,0.9
61905,Muskegon Heights Public School Academy System,2441 Sanford St,Muskegon,MI,49444,"2441 Sanford St, Muskegon, MI 49444",43.20796255,-86.24589984,"2441 Sanford Street, Muskegon Heights, MI 49444, United States of America",1,1,1
61905,Muskegon Heights Public School Academy System,55 East Sherman Blvd,Muskegon,MI,49444,"55 East Sherman Blvd, Muskegon, MI 49444",43.2044722,-86.24341931,"Dr. Martin Luther King Academy, 55 East Sherman Boulevard, Muskegon Heights, MI 49444, United States of America",1,1,1
61906,Muskegon Covenant Academy,125 Catherine Ave,Muskegon,MI,49442,"125 Catherine Ave, Muskegon, MI 49442",43.22828315,-86.24046154,"125 Catherine Avenue, Muskegon, MI 49442, United States of America",1,1,1
61907,Muskegon Maritime Academy,571 E Apple Ave,Muskegon,MI,49442,"571 E Apple Ave, Muskegon, MI 49442",43.23427237,-86.22983125,"571 East Apple Avenue, Muskegon, MI 49442, United States of America",1,1,1
63900,Oakland County Academy of Media & Technology,48980 Woodward Ave,Pontiac,MI,48342,"48980 Woodward Ave, Pontiac, MI 48342",42.642627,-83.297769,"48980 Woodward Avenue, Pontiac, MI 48342, United States of America",1,1,1
63901,AGBU Alex-Marie Manoogian School,22001 Northwe#rn Hwy,Southfield,MI,48075,"22001 Northwe#rn Hwy, Southfield, MI 48075",42.462064,-83.230398,"Southfield (Southfield), MI 48075, United States of America",0.25,1,
63902,Academy of Oak Park,20820 Greenfield Rd,Oak Park,MI,48237,"21700 Marlow St, Oak Park, MI 48237",42.454112,-83.195627,"20820 Greenfield Rd, Oak Park, MI 48237, United States of America",1,1,1
63902,Academy of Oak Park,21700 Marlow St,Oak Park,MI,48237,"21700 Marlow St, Oak Park, MI 48237",42.454112,-83.195627,"21700 Marlow Street, Oak Park, MI 48237, United States of America",1,1,1
63902,Academy of Oak Park,21300 Mendota Ave,Ferndale,MI,48220,"21300 Mendota Ave, Ferndale, MI 48220",42.450707,-83.165984,"21300 Mendota Avenue, Ferndale, MI 48220, United States of America",1,1,1
63902,Academy of Oak Park,14213 Whitcomb St,Detroit,MI,48227,"14213 Whitcomb St, Detroit, MI 48227",42.398648,-83.164558,"Detroit (Detroit), MI, United States of America",0.25,1,
63902,Academy of Oak Park,14213 Whitcomb Avenue,Detroit,MI,48227,"14213 Whitcomb Avenue, Detroit, MI 48227",42.39080535,-83.19643371,"14213 Whitcomb Avenue, Detroit, MI 48227, United States of America",1,1,1
63903,Academy of Southfield,18330 George Washington Dr,Southfield,MI,48075,"18330 George Washington Dr, Southfield, MI 48075",42.47156962,-83.22385884,"18330 George Washington Drive, Southfield, MI 48075, United States of America",1,1,1
63904,Leaders Preparatory Academy,27700 Southfield Rd,Lathrup Village,MI,48076,"27700 Southfield Rd, Lathrup Village, MI 48076",42.4861739,-83.2211584,"Cooper St. Cookies, 27700 Southfield Road, Lathrup Village, MI 48076, United States of America",1,1,1
63905,Oasis Academy,21705 Evergreen Road,Southfield,MI,48075,"21705 Evergreen Road, Southfield, MI 48075",42.4509857,-83.23975465,"21705 Evergreen Road, Southfield, MI 48075, United States of America",1,1,1
63906,Pontiac Academy for Excellence,196 Cesar E Chavez Ave,Pontiac,MI,48342,"196 Cesar E Chavez Ave, Pontiac, MI 48342",42.64396157,-83.29780779,"196 Cesar E. Chavez Avenue, Pontiac, MI 48342, United States of America",1,1,1
63907,Great Lakes Academy,46312 Woodward Ave,Pontiac,MI,48342,"46312 Woodward Ave, Pontiac, MI 48342",42.63131307,-83.28854098,"46312 Woodward Avenue, Pontiac, MI 48342, United States of America",1,1,1
63908,Academy of Michigan,20820 Greenfield,Oak Park,MI,48237,"20820 Greenfield, Oak Park, MI 48237",42.446829,-83.199343,"20820 Greenfield Road, Oak Park, MI 48237, United States of America",0.9,1,0.9
63909,Oakside Prep Academy,355 Summit Dr,Waterford,MI,48328,"355 Summit Dr, Waterford, MI 48328",42.64789126,-83.33242706,"355 Summit Drive, Waterford Township, MI 48328, United States of America",1,1,1
63910,Dr. Joseph F. Pollack Academic Center of Excellence,23777 Southfield Rd,Southfield,MI,48075,"23777 Southfield Rd, Southfield, MI 48075",42.465521,-83.222081,"23777 Southfield Road, Southfield, MI 48075, United States of America",1,1,1
63911,Holly Academy,820 Academy Rd,Holly,MI,48442,"820 Academy Rd, Holly, MI 48442",42.79172374,-83.63990254,"820 Academy Road, Oakland County, MI 48442, United States of America",1,1,1
63912,Oakland International Academy,8228 Conant St,Detroit,MI,48211,"8228 Conant St, Detroit, MI 48211",42.38980895,-83.04281895,"8228 Conant Street, Detroit, MI 48211, United States of America",1,1,1
63912,Oakland International Academy,4001 Miller St,Detroit,MI,48211,"4001 Miller St, Detroit, MI 48211",42.39080125,-83.04057246,"Oakland International Academy Elementary School, 4001 Miller Street, Detroit, MI 48211, United States of America",1,1,1
63912,Oakland International Academy,2619 Florian St,Hamtramck,MI,48212,"2619 Florian St, Hamtramck, MI 48212",42.39348861,-83.05897106,"2619 Florian Street, Hamtramck, MI 48212, United States of America",1,1,1
63912,Oakland International Academy,6111 Miller St,Detroit,MI,48211,"6111 Miller St, Detroit, MI 48211",42.39071398,-83.03976755,"6111 Miller Street, Detroit, MI 48211, United States of America",1,1,1
63913,Walton Charter Academy,744 E Walton Blvd,Pontiac,MI,48340,"744 E Walton Blvd, Pontiac, MI 48340",42.67760242,-83.27238488,"744 East Walton Boulevard, Pontiac, MI 48340, United States of America",1,1,1
63914,Advanced Technology Academy,4800 Oakman Blvd,Dearborn,MI,48126,"4800 Oakman Blvd, Dearborn, MI 48126",42.3660968,-83.1535054,"4800 Oakman Boulevard, Dearborn, MI 48204, United States of America",1,1,1
63914,Advanced Technology Academy,19499 Victor Pkwy,Livonia,MI,48152,"19499 Victor Pkwy, Livonia, MI 48152",42.43171141,-83.42241408,"19499 Victor Parkway, Livonia, MI 48152, United States of America",1,1,1
63914,Advanced Technology Academy,4801 Oakman Blvd,Dearborn,MI,48126,"4801 Oakman Blvd, Dearborn, MI 48126",42.3224688,-83.16824981,"Advanced Technology Academy, 4801 Oakman Boulevard, Dearborn, MI 48126, United States of America",1,1,1
63914,Advanced Technology Academy,7265 Calhoun Street,Dearborn,MI,48126,"7265 Calhoun Street, Dearborn, MI 48126",42.34466509,-83.17575969,"7265 Calhoun Street, Dearborn, MI 48126, United States of America",1,1,1
63915,Arts and Technology Academy of Pontiac,888 Enterprise Dr,Pontiac,MI,48341,"888 Enterprise Dr, Pontiac, MI 48341",42.62003042,-83.25093706,"888 Enterprise Drive, Pontiac, MI 48341, United States of America",1,1,1
63916,Academy of Waterford,3000 Sashabaw Rd,Waterford,MI,48329,"3000 Sashabaw Rd, Waterford, MI 48329",42.68309227,-83.3736549,"3000 Sashabaw Road, Waterford Township, MI 48329, United States of America",1,1,1
63917,Bradford Academy,24218 Garner St,Southfield,MI,48033,"24218 Garner St, Southfield, MI 48033",42.46283591,-83.28169687,"24218 Garner Street, Southfield, MI 48033, United States of America",1,1,1
63918,Laurus Academy,24590 Lahser Rd,Southfield,MI,48033,"24590 Lahser Rd, Southfield, MI 48033",42.46867532,-83.26046487,"24590 Lahser Road, Southfield, MI 48033, United States of America",1,1,1
63919,Woodmont Academy,25175 Code Rd,Southfield,MI,48033,"25175 Code Rd, Southfield, MI 48033",42.47416543,-83.2656244,"25175 Code Road, Southfield, MI 48033, United States of America",1,1,1
63920,Flex High School of Pontiac,142 Auburn Ave,Pontiac,MI,48342,"142 Auburn Ave, Pontiac, MI 48342",42.63424597,-83.28407714,"142 Auburn Avenue, Pontiac, MI 48342, United States of America",1,1,1
63921,Crescent Academy,17570 W 12 Mile Rd,Southfield,MI,48076,"17570 W 12 Mile Rd, Southfield, MI 48076",42.50261988,-83.21970895,"17570 West 12 Mile Road, Southfield, MI 48076, United States of America",1,1,1
63921,Crescent Academy,13400 Oak Park Boulevard,Oak Park,MI,48237,"13400 Oak Park Boulevard, Oak Park, MI 48237",42.46577395,-83.18002286,"13400 Oak Park Boulevard, Oak Park, MI 48237, United States of America",1,1,1
63921,Crescent Academy,25175 Code Rd,Southfield,MI,48033,"25175 Code Rd, Southfield, MI 48033",42.47416543,-83.2656244,"25175 Code Road, Southfield, MI 48033, United States of America",1,1,1
63921,Crescent Academy,26555 Franklin Rd,Southfield,MI,48033,"26555 Franklin Rd, Southfield, MI 48033",42.48373312,-83.28861461,"26555 Franklin Road, Southfield, MI 48033, United States of America",1,1,1
63922,Great Oaks Academy,4257 Bart Ave,Warren,MI,48091,"4257 Bart Ave, Warren, MI 48091",42.46593388,-83.06317546,"4257 Bart Avenue, Warren, MI 48091, United States of America",1,1,1
63923,Four Corners Montessori Academy,1075 E Gardenia Ave,Madison Heights,MI,48071,"1075 E Gardenia Ave, Madison Heights, MI 48071",42.49799957,-83.09525081,"1075 East Gardenia Avenue, Madison Heights, MI 48071, United States of America",1,1,1
63924,Michigan Mathematics and Science Academy,27300 Dequindre Rd,Warren,MI,48092,"27300 Dequindre Rd, Warren, MI 48092",42.49283,-83.085072,"27300 Dequindre Road, Warren, MI 48092, United States of America",1,1,1
63924,Michigan Mathematics and Science Academy,28501 Lorraine Ave,Warren,MI,48093,"28501 Lorraine Ave, Warren, MI 48093",42.50263087,-83.01852017,"28501 Lorraine Avenue, Warren, MI 48093, United States of America",1,1,1
63925,Taylor International Academy,26555 Franklin Road,Southfield,MI,48034,"26555 Franklin Road, Southfield, MI 48034",42.483529,-83.290759,"26555 Franklin Road, Southfield, MI 48033, United States of America",1,1,1
63926,Faxon Academy,26275 Northwe#rn Hwy,Southfield,MI,48076,"26275 Northwe#rn Hwy, Southfield, MI 48076",42.497517,-83.230874,"Lathrup Village (Lathrup Village), MI 48076, United States of America",0.25,1,
63927,Michigan School for the Arts,825 Golf Drive,Pontiac,MI,48341,"825 Golf Drive, Pontiac, MI 48341",42.61795891,-83.30407754,"825 Golf Drive, Pontiac, MI 48341, United States of America",1,1,1
63928,Momentum Academy,60 S Lynn Ave,Waterford,MI,48328,"60 S Lynn Ave, Waterford, MI 48328",42.63361007,-83.33561225,"60 South Lynn Avenue, Waterford Township, MI 48328, United States of America",1,1,1
63929,Waterford Montessori Academy,4860 Midland Ave,Waterford,MI,48329,"4860 Midland Ave, Waterford, MI 48329",42.69435739,-83.38438835,"4860 Midland Avenue, Waterford Township, MI 48329, United States of America",1,1,1
63929,Waterford Montessori Academy,4350 Elizabeth Lake Rd,Waterford,MI,48328,"4350 Elizabeth Lake Rd, Waterford, MI 48328",42.63892973,-83.37277514,"4350 Elizabeth Lake Road, Waterford Township, MI 48328, United States of America",1,1,1
63930,NexTech High School of Metro Detroit,31333 Southfield Rd,Beverly Hills,MI,48025,"31333 Southfield Rd, Beverly Hills, MI 48025",42.51974375,-83.22422668,"31333 Southfield Road, Beverly Hills, MI 48025, United States of America",1,1,1
63931,Oakland FlexTech High School,23801 Industrial Park Dr,Farmington Hills,MI,48335,"23801 Industrial Park Dr, Farmington Hills, MI 48335",42.46537935,-83.42347865,"23801 Industrial Park Drive, Farmington Hills, MI 48335, United States of America",1,1,1
63932,Deer Trail Academy (SDA),810 James Hunt Dr,Oxford,MI,48371,"810 James Hunt Dr, Oxford, MI 48371",42.81515253,-83.23227556,"810 James Hunt Drive, Oxford Charter Township, MI 48371, United States of America",1,1,1
63932,Deer Trail Academy (SDA),13500 Oak Park Blvd,Oak Park,MI,48237,"13500 Oak Park Blvd, Oak Park, MI 48237",42.46575086,-83.18105459,"13500 Oak Park Boulevard, Oak Park, MI 48237, United States of America",1,1,1
63933,Jefferson International Academy,60 S Lynn Ave,Waterford,MI,48328,"60 S Lynn Ave, Waterford, MI 48328",42.63361007,-83.33561225,"60 South Lynn Avenue, Waterford Township, MI 48328, United States of America",1,1,1
63933,Jefferson International Academy,825 Golf Drive,Pontiac,MI,48341,"825 Golf Drive, Pontiac, MI 48341",42.61795891,-83.30407754,"825 Golf Drive, Pontiac, MI 48341, United States of America",1,1,1
63934,Kingsbury Country Day School,5000 Hosner Rd,Oxford,MI,48370,"5000 Hosner Rd, Oxford, MI 48370",42.871158,-83.20268,"5000 Hosner Road, Dryden Township, MI 48370, United States of America",1,1,1
63935,Frederick Douglass International Academy,21700 Marlow ST.,Oak Park,MI,48237,"21700 Marlow ST., Oak Park, MI 48237",42.454112,-83.195627,"21700 Marlow Street, Oak Park, MI 48237, United States of America",1,1,1
63936,Early Career Academy,1522 E Big Beaver Rd,Troy,MI,48083,"1522 E Big Beaver Rd, Troy, MI 48083",42.56258655,-83.11725388,"1522 East Big Beaver Road, Troy, MI 48083, United States of America",1,1,1
63937,Hinoki International School,29230 West 12 Mile Road,Farmington Hills,MI,48334,"29230 West 12 Mile Road, Farmington Hills, MI 48334",42.49984702,-83.33502583,"29230 West 12 Mile Road, Farmington Hills, MI 48334, United States of America",1,1,1
63938,Keys Grace Academy,27321 Hampden St,Madison Heights,MI,48071,"27321 Hampden St, Madison Heights, MI 48071",42.49302169,-83.11370324,"27321 Hampden Street, Madison Heights, MI 48071, United States of America",1,1,1
63938,Keys Grace Academy,915 E 11 Mile Rd,Madison Hts,MI,48071,"915 E 11 Mile Rd, Madison Hts, MI 48071",42.49074539,-83.09717269,"915 East 11 Mile Road, Madison Heights, MI 48071, United States of America",1,1,1
63939,Lighthouse Connections Academy,3150 Livernois Rd,Troy,MI,48083,"3150 Livernois Rd, Troy, MI 48083",42.56417941,-83.14765321,"3150 Livernois Road, Troy, MI 48083, United States of America",1,1,1
64901,Lakeshore Public Academy,6023 N. 72nd Avenue,Hart,MI,49420,"6023 N. 72nd Avenue, Hart, MI 49420",43.75454245,-86.37884145,"6023 North 72nd Avenue, Weare Township, MI 49420, United States of America",1,1,1
65900,Alternative Educational Academy of Ogemaw County,2479 S M 76,West Branch,MI,48661,"2479 S M 76, West Branch, MI 48661",44.2629473,-84.21460913,"Alternative Educational Academy of Ogemaw County, 2479 South M-76, West Branch Township, MI 48661, United States of America",1,1,1
70901,Walden Green Montessori,17339 Roosevelt Rd,Spring Lake,MI,49456,"17339 Roosevelt Rd, Spring Lake, MI 49456",43.08840578,-86.21880504,"17339 Roosevelt Road, Ferrysburg, MI 49456, United States of America",1,1,1
70902,West MI Academy of Arts and Academics,17350 Hazel St,Spring Lake,MI,49456,"17350 Hazel St, Spring Lake, MI 49456",43.086108,-86.212406,"17350 Hazel, Ferrysburg, MI 49456, United States of America",0.9,1,0.9
70904,Black River Public School,491 Columbia Ave,Holland,MI,49423,"491 Columbia Ave, Holland, MI 49423",42.779352,-86.100121,"491 Columbia Avenue, Holland, MI 49423, United States of America",1,1,1
70904,Black River Public School,513 Columbia Ave,Holland,MI,49423,"513 Columbia Ave, Holland, MI 49423",42.77819082,-86.10009481,"513 Columbia Avenue, Holland, MI 49423, United States of America",1,1,1
70905,Vanderbilt Charter Academy,301 W 16th St,Holland,MI,49423,"301 W 16th St, Holland, MI 49423",42.783037,-86.120568,"301 West 16th Street, Holland, MI 49423, United States of America",1,1,1
70906,Eagle Crest Charter Academy,11950 Riley St,Holland,MI,49424,"11950 Riley St, Holland, MI 49424",42.82654417,-86.07699626,"11950 Riley Street, Zeeland, MI 49424, United States of America",1,1,1
70907,Wavecrest Career Academy,633 Apple Ave,Holland,MI,49423,"633 Apple Ave, Holland, MI 49423",42.77386967,-86.08992333,"633 Apple Avenue, Holland, MI 49423, United States of America",1,1,1
70908,Innocademy,8485 Home#ad Dr,Zeeland,MI,49464,"8485 Home#ad Dr, Zeeland, MI 49464",42.8108439,-85.9913348,"Innocademy, 8485 Homestead Drive, Zeeland Charter Township, MI 49464, United States of America",0.63,1,0.63
70909,ICademy Global,8485 Home#ad Dr,Zeeland,MI,49464,"8485 Home#ad Dr, Zeeland, MI 49464",42.8108439,-85.9913348,"Innocademy, 8485 Homestead Drive, Zeeland Charter Township, MI 49464, United States of America",0.63,1,0.63
71901,Presque Isle Academy I,251 W. Huron Avenue,Rogers City,MI,49779,"251 W. Huron Avenue, Rogers City, MI 49779",45.42049312,-83.81971369,"251 West Huron Avenue, Rogers City, MI 49779, United States of America",1,1,1
71902,Presque Isle Academy,P.O. Box 731,Onaway,MI,49765,"P.O. Box 731, Onaway, MI 49765",45.357512,-84.223903,"Onaway, MI, United States of America",1,1,
71902,Presque Isle Academy,20830 Cedar St,Onaway,MI,49765,"20830 Cedar St, Onaway, MI 49765",45.36160355,-84.2306137,"Presque Isle Academy, 20830 West Cedar Street, Onaway, MI 49765, United States of America",1,1,1
72901,Charlton Heston Academy,1350 N Saint Helen Rd,Saint Helen,MI,48656,"1350 N Saint Helen Rd, Saint Helen, MI 48656",44.35320231,-84.41013182,"1350 North Saint Helen Road, St. Helen, MI 48656, United States of America",1,1,1
72901,Charlton Heston Academy,1495 N Saint Helen Rd,Saint Helen,MI,48656,"1495 N Saint Helen Rd, Saint Helen, MI 48656",44.35696988,-84.41034714,"1495 North Saint Helen Road, St. Helen, MI 48656, United States of America",1,1,1
73900,Saginaw Covenant Academy,508 S Washington Ave,Saginaw,MI,48607,"508 S Washington Ave, Saginaw, MI 48607",43.42831545,-83.94051433,"508 South Washington Avenue, Saginaw, MI 48607, United States of America",1,1,1
73901,Saginaw Academy of Excellence,1300 Malzahn St,Saginaw,MI,48602,"1300 Malzahn St, Saginaw, MI 48602",43.426293,-83.988732,"1300 Malzahn Street, Saginaw, MI 48602, United States of America",1,1,1
73902,Northlane Math & Science Academy,Warriner Hall 265,Mt. Pleasant,MI,48849,"Warriner Hall 265, Mt. Pleasant, MI 48849",,,,,,
73902,Northlane Math & Science Academy,P.O. Box 160,Freeland,MI,48623,"P.O. Box 160, Freeland, MI 48623",43.5250265,-84.1227598,"Freeland, Tittabawassee Township, MI 48623, United States of America",1,1,
73903,Academy for Technology and Enterprise,2102 Weiss Street,Saginaw,MI,48602,"2102 Weiss Street, Saginaw, MI 48602",43.44375904,-83.96786906,"2102 Weiss Street, Saginaw, MI 48602, United States of America",1,1,1
73904,Benito Juarez Academy,3830 Lamson Street,Saginaw,MI,48601,"3830 Lamson Street, Saginaw, MI 48601",43.40467797,-83.91438845,"3830 Lamson Street, Saginaw, MI 48601, United States of America",1,1,1
73905,Saginaw County Transition Academy,1000 Tuscola St,Saginaw,MI,48607,"1000 Tuscola St, Saginaw, MI 48607",43.433055,-83.930078,"1000 Tuscola Street, Saginaw, MI 48607, United States of America",1,1,1
73906,Curtis House Academy,6235 Gratiot Road,Saginaw,MI,48603,"6235 Gratiot Road, Saginaw, MI 48603",43.4154755,-84.0381716,"6235 Gratiot Road, Saginaw Charter Township, MI 48638, United States of America",0.9,0.9,0.9
73906,Curtis House Academy,P.O. Box 309,Frankenmuth,MI,48734,"P.O. Box 309, Frankenmuth, MI 48734",43.3323684,-83.7392288,"Frankenmuth, MI, United States of America",1,1,
73907,Saginaw Preparatory PSA,7400 Bay Road,University Center,MI,48710,"7400 Bay Road, University Center, MI 48710",43.514286,-83.96388396,"Marshall M. Fredericks Sculpture Museum, 7400 Bay Road, Kochville Township, MI 48710, United States of America",0.95,1,1
73907,Saginaw Preparatory PSA,615 South Jefferson,Saginaw,MI,48601,"615 South Jefferson, Saginaw, MI 48601",43.4269281,-83.9375133,"615 South Jefferson Avenue, Saginaw, MI, United States of America",0.9,1,0.9
73908,Saginaw Preparatory Academy,5173 Lodge St,Saginaw,MI,48601,"5173 Lodge St, Saginaw, MI 48601",43.39566535,-83.87839037,"5173 Lodge Street, Buena Vista Charter Township, MI 48601, United States of America",1,1,1
73909,Francis Reh PSA,2201 Owen St,Saginaw,MI,48601,"2201 Owen St, Saginaw, MI 48601",43.40669661,-83.94471496,"2201 Owen Street, Saginaw, MI 48601, United States of America",1,1,1
73910,North Saginaw Charter Academy,2332 Trautner Dr,Saginaw,MI,48604,"2332 Trautner Dr, Saginaw, MI 48604",43.48470259,-83.96243461,"2332 Trautner Drive, Kochville Township, MI 48604, United States of America",1,1,1
73911,Saginaw Learn to Earn Academy,1000 Tuscola St,Saginaw,MI,48607,"1000 Tuscola St, Saginaw, MI 48607",43.433055,-83.930078,"1000 Tuscola Street, Saginaw, MI 48607, United States of America",1,1,1
73912,International Academy of Saginaw,1944 Iowa Ave,Saginaw,MI,48601,"1944 Iowa Ave, Saginaw, MI 48601",43.38477956,-83.91721375,"1944 Iowa Avenue, Bridgeport Charter Township, MI 48601, United States of America",1,1,1
73913,New Hope Public School Academy,3145 Russell St,Saginaw,MI,48601,"3145 Russell St, Saginaw, MI 48601",43.39714757,-83.96005573,"3145 Russell Street, Saginaw, MI 48601, United States of America",1,1,1
74900,East Shore Leadership Academy,1403 7th St,Port Huron,MI,48060,"1403 7th St, Port Huron, MI 48060",42.96928349,-82.4274389,"1403 7th Street, Port Huron, MI 48060, United States of America",1,1,1
74901,St. Clair County Learning Academy,1520 Michigan Rd,Port Huron,MI,48060,"1520 Michigan Rd, Port Huron, MI 48060",42.95172494,-82.48177247,"1520 Michigan Road, Tappan, MI 48060, United States of America",1,1,1
74902,Industrial Technology Academy,Po Box 1500,Marysville,MI,48040,"Po Box 1500, Marysville, MI 48040",42.9108647,-82.4861734,"Marysville, MI 48040, United States of America",1,1,
74903,Landmark Academy,4800 Lapeer Rd,Kimball,MI,48074,"4800 Lapeer Rd, Kimball, MI 48074",42.98324154,-82.51719283,"4800 Lapeer Road, Saint Clair County, MI 48074, United States of America",1,1,1
74904,Health Careers Academy of St. Clair County,Po Box 1500,Marysville,MI,48040,"Po Box 1500, Marysville, MI 48040",42.9108647,-82.4861734,"Marysville, MI 48040, United States of America",1,1,
74905,Hospitality Academy of St. Clair County,Po Box 1500,Marysville,MI,48040,"Po Box 1500, Marysville, MI 48040",42.9108647,-82.4861734,"Marysville, MI 48040, United States of America",1,1,
74906,Blue Water Learning Academy,9541 Phelps,Algonac,MI,48001,"9541 Phelps, Algonac, MI 48001",42.627836,-82.585253,"9541 Phelps Road, Algonac, MI 48001, United States of America",0.9,1,0.9
74907,Information Technology Academy of St. Clair,Po Box 1500,Marysville,MI,48040,"Po Box 1500, Marysville, MI 48040",42.9108647,-82.4861734,"Marysville, MI 48040, United States of America",1,1,
74908,Academic Transitional Academy,1520 Michigan Rd,Port Huron,MI,48060,"1520 Michigan Rd, Port Huron, MI 48060",42.95172494,-82.48177247,"1520 Michigan Road, Tappan, MI 48060, United States of America",1,1,1
74909,Public Safety Academy of St. Clair,Po Box 1500,Marysville,MI,48040,"Po Box 1500, Marysville, MI 48040",42.9108647,-82.4861734,"Marysville, MI 48040, United States of America",1,1,
74910,St. Clair County Academy of Style,Po Box 1500,Marysville,MI,48040,"Po Box 1500, Marysville, MI 48040",42.9108647,-82.4861734,"Marysville, MI 48040, United States of America",1,1,
74911,St. Clair County Intervention Academy,1170 Michigan Rd,Port Huron,MI,48060,"1170 Michigan Rd, Port Huron, MI 48060",42.94148999,-82.48122027,"1170 Michigan Road, Saint Clair County, MI 48060, United States of America",1,1,1
74911,St. Clair County Intervention Academy,Po Box 1500,Marysville,MI,48040,"Po Box 1500, Marysville, MI 48040",42.9108647,-82.4861734,"Marysville, MI 48040, United States of America",1,1,
74912,Virtual Learning Academy of St. Clair County,499 Range Road,Marysville,MI,48040,"499 Range Road, Marysville, MI 48040",42.917623,-82.501695,"499 Range Road, Marysville, MI 48074, United States of America",1,1,1
74913,St. Clair County Career Prep Academy,499 Range Road,Marysville,MI,48040,"499 Range Road, Marysville, MI 48040",42.917623,-82.501695,"499 Range Road, Marysville, MI 48074, United States of America",1,1,1
74914,Blue Water Middle College,323 Erie St,Port Huron,MI,48060,"323 Erie St, Port Huron, MI 48060",42.97805809,-82.42743095,"323 Erie Street, Port Huron, MI 48060, United States of America",1,1,1
74914,Blue Water Middle College,323 Erie Street,Port Huron,MI,48061,"323 Erie Street, Port Huron, MI 48061",42.978189,-82.427936,"323 Erie Street, Port Huron, MI 48060, United States of America",1,1,1
80900,Michigan Online School,209 S State St,Gobles,MI,49055,"209 S State St, Gobles, MI 49055",42.35930694,-85.87885467,"209 South State Street, Gobles, MI 49055, United States of America",1,1,1
80901,George Washington Academy,1141 Mackinac Hall,Allendale,MI,49401,"1141 Mackinac Hall, Allendale, MI 49401",42.966889,-85.886799,"Mackinac Hall, Allendale, MI, United States of America",0.5,1,1
80901,George Washington Academy,560 Indiana Avenue,South Haven,MI,49090,"560 Indiana Avenue, South Haven, MI 49090",42.39874126,-86.27783078,"560 Indiana Avenue, South Haven, MI 49090, United States of America",1,1,1
81900,Global Tech Academy,1715 E Forest Ave,Ypsilanti,MI,48198,"1715 E Forest Ave, Ypsilanti, MI 48198",42.25015907,-83.57638226,"1715 East Forest Avenue, Ypsilanti Charter Township, MI 48198, United States of America",1,1,1
81901,Honey Creek Community School,1735 S Wagner Rd,Ann Arbor,MI,48103,"1735 S Wagner Rd, Ann Arbor, MI 48103",42.2606384,-83.7988254,"1735 South Wagner Road, Scio Township, MI 48103, United States of America",1,1,1
81902,Central Academy,2459 S Industrial Hwy,Ann Arbor,MI,48104,"2459 S Industrial Hwy, Ann Arbor, MI 48104",42.25199201,-83.73305584,"2459 South Industrial Highway, Ann Arbor, MI 48104, United States of America",1,1,1
81902,Central Academy,2455 S. Industrial Highway,Ann Arbor,MI,48104,"2455 S. Industrial Highway, Ann Arbor, MI 48104",42.25202411,-83.73307622,"2455 South Industrial Highway, Ann Arbor, MI 48104, United States of America",1,1,1
81903,Washtenaw Technical Middle College,4800 E Huron River Dr,Ann Arbor,MI,48105,"4800 E Huron River Dr, Ann Arbor, MI 48105",42.2641155,-83.6649436,"4800 East Huron River Drive, AnnArbor Charter Township, MI 48105, United States of America",1,1,1
81904,Ann Arbor Learning Community,4377 Textile Rd,Ypsilanti,MI,48197,"4377 Textile Rd, Ypsilanti, MI 48197",42.20134102,-83.67247535,"4377 Textile Road, Pittsfield Charter Township, MI 48197, United States of America",1,1,1
81905,South Arbor Charter Academy,8200 Carpenter Rd,Ypsilanti,MI,48197,"8200 Carpenter Rd, Ypsilanti, MI 48197",42.1692006,-83.67936888,"8200 Carpenter Road, York Charter Township, MI 48197, United States of America",1,1,1
81906,Fortis Academy,3875 Golfside Rd,Ypsilanti,MI,48197,"3875 Golfside Rd, Ypsilanti, MI 48197",42.2325403,-83.6606499,"3875 Golfside Road, Pittsfield Charter Township, MI 48197, United States of America",1,1,1
81907,Victory Academy Charter School,1715 East Forest Ave,Ypsilanti,MI,48198,"1715 East Forest Ave, Ypsilanti, MI 48198",42.25015907,-83.57638226,"1715 East Forest Avenue, Ypsilanti Charter Township, MI 48198, United States of America",1,1,1
81908,Multicultural Academy,5550 Platt Rd,Ann Arbor,MI,48108,"5550 Platt Rd, Ann Arbor, MI 48108",42.20738685,-83.7006356,"Multicultural Academy, 5550 Platt Road, Ann Arbor, MI 48108, United States of America",1,1,1
81909,Arbor Preparatory High School,6800 Hitchingham Rd,Ypsilanti,MI,48197,"6800 Hitchingham Rd, Ypsilanti, MI 48197",42.18924866,-83.6207097,"6800 Hitchingham Road, Ypsilanti Charter Township, MI 48197, United States of America",1,1,1
81910,East Arbor Charter Academy,6885 Merritt Rd,Ypsilanti,MI,48197,"6885 Merritt Rd, Ypsilanti, MI 48197",42.18736134,-83.62253652,"6885 Merritt Road, Ypsilanti Charter Township, MI 48197, United States of America",1,1,1
81911,WSC Academy,855 Jefferson St,Ypsilanti,MI,48197,"855 Jefferson St, Ypsilanti, MI 48197",42.22898416,-83.6208961,"855 Jefferson Street, Ypsilanti, MI 48197, United States of America",1,1,1
81911,WSC Academy,10355 Citation Dr,Brighton,MI,48116,"10355 Citation Dr, Brighton, MI 48116",42.52120698,-83.74918229,"10355 Citation Drive, Brighton Charter Township, MI 48116, United States of America",1,1,1
81912,South Pointe Scholars Charter Academy,10550 Geddes Rd,Ypsilanti,MI,48198,"10550 Geddes Rd, Ypsilanti, MI 48198",42.27665625,-83.55316781,"10550 Geddes Road, Superior Charter Township, MI 48198, United States of America",1,1,1
81913,Livingston Classical Academy,8877 Main St,Whitmore Lake,MI,48189,"8877 Main St, Whitmore Lake, MI 48189",42.41397481,-83.76118829,"8877 Main Street, Northfield Township, MI 48189, United States of America",1,1,1
81914,The Building Trades School,34705 West 12 Mile Road #160,Farmington Hills,MI,48331,"34705 West 12 Mile Road #160, Farmington Hills, MI 48331",42.49843012,-83.39000661,"34705 West 12 Mile Road, Farmington Hills, MI 48331, United States of America",1,1,1
81914,The Building Trades School,34705 West 12 Mile Rd,Farmington Hills,MI,48331,"34705 West 12 Mile Rd, Farmington Hills, MI 48331",42.49843012,-83.39000661,"34705 West 12 Mile Road, Farmington Hills, MI 48331, United States of America",1,1,1
81915,Pittsfield Acres Academy,4377 Textile Rd,Ypsilanti,MI,48197,"4377 Textile Rd, Ypsilanti, MI 48197",42.20134102,-83.67247535,"4377 Textile Road, Pittsfield Charter Township, MI 48197, United States of America",1,1,1
81916,GEE Compass Academy,850 S. Hewitt Street,Ypsilanti,MI,48197,"850 S. Hewitt Street, Ypsilanti, MI 48197",42.194034,-83.639984,"Ypsilanti, MI 48197, United States of America",0.25,1,
82700,Detroit Achievement Academy,7000 W Outer Dr,Detroit,MI,48235,"7000 W Outer Dr, Detroit, MI 48235",42.419747,-83.199628,"7000 West Outer Drive, Detroit, MI 48235, United States of America",1,1,1
82700,Detroit Achievement Academy,8411 Sylve#r St,Detroit,MI,48214,"8411 Sylve#r St, Detroit, MI 48214",42.37190065,-83.00398719,"Detroit Prep, 8411 Sylvester Street, Detroit, MI 48214, United States of America",0.63,1,0.63
82701,University Preparatory Science and Math (PSAD),5100 John R St,Detroit,MI,48202,"5100 John R St, Detroit, MI 48202",42.35903455,-83.06215875,"University Prep Science & Math Middle School, 5100 John R Street, Detroit, MI 48202, United States of America",1,1,1
82701,University Preparatory Science and Math (PSAD),2251 Antietam Ave,Detroit,MI,48207,"2251 Antietam Ave, Detroit, MI 48207",42.3482033,-83.03065479,"2251 Antietam Avenue, Detroit, MI 48207, United States of America",1,1,1
82701,University Preparatory Science and Math (PSAD),2664 Franklin St,Detroit,MI,48207,"2664 Franklin St, Detroit, MI 48207",42.3370793,-83.02036204,"2664 Franklin Street, Detroit, MI 48207, United States of America",1,1,1
82702,University Preparatory Academy (PSAD),P. O. Box 2339,Detroit,MI,48202,"P. O. Box 2339, Detroit, MI 48202",42.37764993,-83.08214946,"Detroit, MI 48202, United States of America",1,1,
82702,University Preparatory Academy (PSAD),485 W Milwaukee Ave,Detroit,MI,48202,"485 W Milwaukee St, Detroit, MI 48202",42.36815664,-83.07487491,"485 West Milwaukee Ave, Detroit, MI 48202, United States of America",1,1,1
82702,University Preparatory Academy (PSAD),435 Am#rdam St,Detroit,MI,48202,"435 Am#rdam St, Detroit, MI 48202",42.36552,-83.073047,"435 Amsterdam Street, Detroit, MI 48202, United States of America",0.63,1,0.63
82702,University Preparatory Academy (PSAD),957 Holden St,Detroit,MI,48202,"957 Holden St, Detroit, MI 48202",42.361252,-83.0768424,"957 Holden Street, Detroit, MI 48202, United States of America",1,1,1
82702,University Preparatory Academy (PSAD),600 Antoinette St,Detroit,MI,48202,"600 Antoinette St, Detroit, MI 48202",42.3626151,-83.07360433,"600 Antoinette Street, Detroit, MI 48202, United States of America",1,1,1
82702,University Preparatory Academy (PSAD),5310 Saint Antoine St,Detroit,MI,48202,"5310 Saint Antoine St, Detroit, MI 48202",42.36240735,-83.05789413,"5310 Saint Antoine Street, Detroit, MI 48202, United States of America",1,1,1
82703,University Preparatory Art & Design,485 W Milwaukee Ave,Detroit,MI,48202,"485 W Milwaukee St, Detroit, MI 48202",42.36815664,-83.07487491,"485 West Milwaukee Ave, Detroit, MI 48202, United States of America",1,1,1
82703,University Preparatory Art & Design,10225 3rd St,Detroit,MI,48202,"10225 3rd St, Detroit, MI 48202",42.38652815,-83.09262669,"10225 3rd Street, Detroit, MI 48202, United States of America",1,1,1
82704,Detroit Public Safety Academy,1250 Rosa Parks Blvd,Detroit,MI,48216,"1250 Rosa Parks Blvd, Detroit, MI 48216",42.3251629,-83.06735949,"1250 Rosa Parks Boulevard, Detroit, MI 48216, United States of America",1,1,1
82705,Branch Line School,16360 Hubbard St,Livonia,MI,48154,"16360 Hubbard St, Livonia, MI 48154",42.40707642,-83.36415969,"16360 Hubbard, Livonia, MI 48154, United States of America",0.9,1,0.9
82706,The James and Grace Lee Boggs School,7600 Goethe St,Detroit,MI,48214,"7600 Goethe St, Detroit, MI 48214",42.363642,-83.008118,"7600 Goethe Street, Detroit, MI 48214, United States of America",1,1,1
82707,Experiencia Preparatory Academy,950 Selden St,Detroit,MI,48201,"950 Selden St, Detroit, MI 48201",42.34630902,-83.06833806,"950 Selden Street, Detroit, MI 48201, United States of America",1,1,1
82708,Catherine Ferguson Academy,2750 Selden St,Detroit,MI,48208,"2750 Selden St, Detroit, MI 48208",42.34020249,-83.0891587,"2750 Selden Street, Detroit, MI 48208, United States of America",1,1,1
82709,International Academy of Detroit,7000 W Outer Dr,Detroit,MI,48235,"7000 W Outer Dr, Detroit, MI 48235",42.419747,-83.199628,"7000 West Outer Drive, Detroit, MI 48235, United States of America",1,1,1
82710,WAY Michigan,407 E Fort St,Detroit,MI,48226,"407 E Fort St, Detroit, MI 48226",42.3328632,-83.04242857,"407 East Fort Street, Detroit, MI 48226, United States of America",1,1,1
82711,Canton Preparatory High School,46610 Cherry Hill Rd,Canton,MI,48187,"46610 Cherry Hill Rd, Canton, MI 48187",42.30726098,-83.49776513,"46610 Cherry Hill Road, Canton Township, MI 48187, United States of America",1,1,1
82712,Pathways Global Leadership Academy,556 Cu#r St,Detroit,MI,48202,"556 Cu#r St, Detroit, MI 48202",42.374786,-83.077718,"Detroit (Detroit), MI 48202, United States of America",0.25,1,
82713,New Paradigm College Prep,4001 29th St,Detroit,MI,48210,"4001 29th St, Detroit, MI 48210",42.33474285,-83.11007972,"4001 29th Street, Detroit, MI 48210, United States of America",1,1,1
82714,Detroit Delta Preparatory Academy for Social Justice,3550 John C Lodge Fwy,Detroit,MI,48201,"3550 John C Lodge Fwy, Detroit, MI 48201",42.34368935,-83.06853101,"3550 John C Lodge Freeway, Detroit, MI 48201, United States of America",1,1,1
82715,Schools for the Future Detroit,3550 John C Lodge Fwy,Detroit,MI,48201,"3550 John C Lodge Fwy, Detroit, MI 48201",42.34368935,-83.06853101,"3550 John C Lodge Freeway, Detroit, MI 48201, United States of America",1,1,1
82716,Vista Meadows Academy,20651 West Warren St,Dearborn Heights,MI,48127,"20651 West Warren St, Dearborn Heights, MI 48127",42.3402474,-83.2438701,"Clara B. Ford Academy, 20651 Whitlock Drive, Dearborn Heights, MI 48127, United States of America",1,1,1
82717,Achieve Charter Academy,3250 Denton Rd,Canton,MI,48188,"3250 Denton Rd, Canton, MI 48188",42.28200123,-83.52517557,"3250 Denton Road, Canton Township, MI 48188, United States of America",1,1,1
82718,Quest Charter Academy,24745 Van Born Rd,Taylor,MI,48180,"24745 Van Born Rd, Taylor, MI 48180",42.26887418,-83.27716482,"24745 Van Born Road, Taylor, MI 48180, United States of America",1,1,1
82719,Washington-Parks Academy,11685 Appleton,Redford,MI,48239,"11685 Appleton, Redford, MI 48239",42.37263564,-83.27193621,"11685 Appleton, Redford Township, MI 48239, United States of America",1,1,1
82719,Washington-Parks Academy,13436 Grove St,Detroit,MI,48235,"13436 Grove St, Detroit, MI 48235",42.41430405,-83.17721632,"13436 Grove Street, Detroit, MI 48235, United States of America",1,1,1
82720,Lincoln-King Academy,13436 Grove St,Detroit,MI,48235,"13436 Grove St, Detroit, MI 48235",42.41430405,-83.17721632,"13436 Grove Street, Detroit, MI 48235, United States of America",1,1,1
82721,McGivney Academy (SDA),5690 Cecil St,Detroit,MI,48210,"5690 Cecil St, Detroit, MI 48210",42.336212,-83.128331,"Detroit (Detroit), MI 48210, United States of America",0.25,1,
82721,McGivney Academy (SDA),17200 Rowe St,Detroit,MI,48205,"17200 Rowe St, Detroit, MI 48205",42.42155724,-83.0027472,"17200 Rowe Street, Detroit, MI 48205, United States of America",1,1,1
82722,Detroit Leadership Academy,13600 Virgil St,Detroit,MI,48223,"13600 Virgil St, Detroit, MI 48223",42.38433637,-83.27096126,"13600 Virgil Street, Detroit, MI 48223, United States of America",1,1,1
82722,Detroit Leadership Academy,5845 Auburn St,Detroit,MI,48228,"5845 Auburn St, Detroit, MI 48228",42.33130465,-83.23297079,"5845 Auburn Street, Detroit, MI 48228, United States of America",1,1,1
82722,Detroit Leadership Academy,13550 Virgil St,Detroit,MI,48223,"13550 Virgil St, Detroit, MI 48223",42.38396769,-83.27094813,"13550 Virgil Street, Detroit, MI 48223, United States of America",1,1,1
82723,Legacy Charter Academy,4900 E Hildale St,Detroit,MI,48234,"4900 E Hildale St, Detroit, MI 48234",42.42879405,-83.05417471,"Legacy Charter Academy, 4900 East Hildale Street, Detroit, MI 48234, United States of America",1,1,1
82724,University Yes Academy,P. O. Box 2716,Detroit,MI,48202,"P. O. Box 2716, Detroit, MI 48202",42.37764993,-83.08214946,"Detroit, MI 48202, United States of America",1,1,
82724,University Yes Academy,14717 Curtis St,Detroit,MI,48235,"14717 Curtis St, Detroit, MI 48235",42.42336345,-83.19130167,"14717 Curtis Street, Detroit, MI 48235, United States of America",1,1,1
82725,Global Heights Academy,23713 Joy Rd,Dearborn Heights,MI,48127,"23713 Joy Rd, Dearborn Heights, MI 48127",42.35687902,-83.27085555,"23713 Joy Road, Dearborn Heights, MI 48127, United States of America",1,1,1
82726,Hinoki International School,36611 Curtis Rd,Livonia,MI,48152,"36611 Curtis Rd, Livonia, MI 48152",42.41862245,-83.40595754,"36611 Curtis Road, Livonia, MI 48152, United States of America",1,1,1
82727,Regent Park Scholars Charter Academy,15865 E 7 Mile Rd,Detroit,MI,48205,"15865 E 7 Mile Rd, Detroit, MI 48205",42.4360778,-82.95748567,"15865 East 7 Mile Road, Detroit, MI 48205, United States of America",1,1,1
82728,Jalen Rose Leadership Academy,15000 Trojan St,Detroit,MI,48235,"15000 Trojan St, Detroit, MI 48235",42.44182015,-83.19475951,"Jalen Rose Leadership Academy, 15000 Trojan Street, Detroit, MI 48235, United States of America",1,1,1
82729,South Canton Scholars Charter Academy,3085 S Canton Center Rd,Canton,MI,48188,"3085 S Canton Center Rd, Canton, MI 48188",42.28452956,-83.48596863,"3085 South Canton Center Road, Canton Township, MI 48188, United States of America",1,1,1
82730,American International Academy,300 S Henry Ruff Rd,Westland,MI,48186,"300 S Henry Ruff Rd, Westland, MI 48186",42.308373,-83.341915,"300 South Henry Ruff, Inkster, MI 48141, United States of America",0.9,1,0.9
82730,American International Academy,28955 Rosewood St,Inkster,MI,48141,"28955 Rosewood St, Inkster, MI 48141",42.2992958,-83.3256476,"28955 Rosewood Street, Inkster, MI 48141, United States of America",1,1,1
82730,American International Academy,27100 Avondale St,Inkster,MI,48141,"27100 Avondale St, Inkster, MI 48141",42.293488,-83.314827,"Inkster (Inkster), MI 48141, United States of America",0.25,1,
82731,GEE Edmonson Academy,1300 West Canfield,Detroit,MI,48201,"1300 West Canfield, Detroit, MI 48201",42.349241,-83.074535,"1300 W Canfield, Detroit, MI 48201, United States of America",1,1,1
82731,GEE Edmonson Academy,1300 West Canfield St,Detroit,MI,48201,"1300 West Canfield St, Detroit, MI 48201",42.34861205,-83.07500945,"1300 West Canfield Street, Detroit, MI 48201, United States of America",1,1,1
82732,GEE White Academy,5161 Charles Street,Detroit,MI,48212,"5161 Charles Street, Detroit, MI 48212",42.41179672,-83.0500802,"5161 Charles Street, Detroit, MI 48212, United States of America",1,1,1
82732,GEE White Academy,5161 Charles St,Detroit,MI,48212,"5161 Charles St, Detroit, MI 48212",42.41179672,-83.0500802,"5161 Charles Street, Detroit, MI 48212, United States of America",1,1,1
82733,Hamilton Academy,14223 Southampton,Detroit,MI,48213,"14223 Southampton, Detroit, MI 48213",42.398919,-82.963123,"14223 Southampton, Detroit, MI 48213, United States of America",1,1,1
82734,New Paradigm Glazer Academy,2001 Labelle,Detroit,MI,48238,"2001 Labelle, Detroit, MI 48238",42.399265,-83.116391,"2001 LaBelle Street, Detroit, MI 48238, United States of America",0.9,1,0.9
82735,New Paradigm Glazer-Loving Academy,1000 Lynn St,Detroit,MI,48211,"1000 Lynn St, Detroit, MI 48211",42.39119805,-83.07538924,"1000 Lynn Street, Detroit, MI 48211, United States of America",1,1,1
82735,New Paradigm Glazer-Loving Academy,2001 Labelle St,Detroit,MI,48238,"2001 Labelle St, Detroit, MI 48238",42.39965464,-83.11620596,"2001 LaBelle Street, Detroit, MI 48238, United States of America",1,1,1
82736,Starr Detroit Academy,19360 Harper Ave,Harper Woods,MI,48225,"19360 Harper Ave, Harper Woods, MI 48225",42.42791518,-82.92551411,"19360 Harper Avenue, Harper Woods, MI 48225, United States of America",1,1,1
82737,Pathways Academy,11340 E Jefferson Ave,Detroit,MI,48214,"11340 E Jefferson Ave, Detroit, MI 48214",42.36674776,-82.97089082,"11340 East Jefferson Avenue, Detroit, MI 48214, United States of America",1,1,1
82738,Academy of International Studies,3056 Hanley St,Hamtramck,MI,48212,"3056 Hanley St, Hamtramck, MI 48212",42.39328932,-83.05232143,"3056 Hanley Street, Hamtramck, MI 48212, United States of America",1,1,1
82739,Detroit Innovation Academy,18211 Plymouth Rd,Detroit,MI,48228,"18211 Plymouth Rd, Detroit, MI 48228",42.37214596,-83.2182748,"18211 Plymouth Road, Detroit, MI 48228, United States of America",1,1,1
82740,University YES Academy East,4401 Conner St,Detroit,MI,48215,"4401 Conner St, Detroit, MI 48215",42.38597884,-82.9697781,"4401 Conner Street, Detroit, MI 48215, United States of America",1,1,1
82741,Cornerstone Health and Technology School,17351 Southfield Road,Detroit,MI,48235,"17351 Southfield Road, Detroit, MI 48235",42.3914334,-83.2176058,"17351 Southfield Road, Detroit, MI, United States of America",1,1,1
82742,Madison-Carver Academy,19900 Mcintyre St,Detroit,MI,48219,"19900 Mcintyre St, Detroit, MI 48219",42.437297,-83.263286,"19900 McIntyre Street, Detroit, MI 48219, United States of America",1,1,1
82743,Plymouth Scholars Charter Academy,48484 N Territorial Rd,Plymouth,MI,48170,"48484 N Territorial Rd, Plymouth, MI 48170",42.37674509,-83.52070103,"48484 North Territorial Road, Plymouth Charter Township, MI 48170, United States of America",1,1,1
82744,Escuela Avancemos,2635 Howard St,Detroit,MI,48216,"2635 Howard St, Detroit, MI 48216",42.32113763,-83.07624873,"2635 Howard Street, Detroit, MI 48216, United States of America",1,1,1
82745,Caniff Liberty Academy,2650 Caniff St,Hamtramck,MI,48212,"2650 Caniff St, Hamtramck, MI 48212",42.39899542,-83.06179701,"2650 Caniff Street, Hamtramck, MI 48212, United States of America",1,1,1
82746,W-A-Y Academy,8701 W Vernor Hwy,Detroit,MI,48209,"8701 W Vernor Hwy, Detroit, MI 48209",42.30906,-83.132825,"8701 West Vernor Highway, Detroit, MI 48209, United States of America",1,1,1
82746,W-A-Y Academy,19321 W Chicago St,Detroit,MI,48228,"19321 W Chicago St, Detroit, MI 48228",42.36472953,-83.230341,"19321 West Chicago Street, Detroit, MI 48228, United States of America",1,1,1
82746,W-A-Y Academy,15900 Common Road,Roseville,MI,48066,"15900 Common Road, Roseville, MI 48066",42.51633786,-82.95954277,"15900 Common Road, Roseville, MI 48066, United States of America",1,1,1
82747,MacDowell Preparatory Academy,4201 W Outer Dr,Detroit,MI,48221,"4201 W Outer Dr, Detroit, MI 48221",42.4349708,-83.16589685,"4201 West Outer Drive, Detroit, MI 48221, United States of America",1,1,1
82748,Rutherford Winans Academy,16411 Curtis St,Detroit,MI,48235,"16411 Curtis St, Detroit, MI 48235",42.4217676,-83.2098122,"16411 Curtis Street, Detroit, MI 48235, United States of America",1,1,1
82749,Highland Park Public School Academy System,15900 Woodward Ave,Highland Park,MI,48203,"15900 Woodward Ave, Highland Park, MI 48203",42.413021,-83.101962,"15900 Woodward Avenue, Highland Park, MI 48203, United States of America",1,1,1
82749,Highland Park Public School Academy System,45 E Buena Vista St,Highland Park,MI,48203,"45 E Buena Vista St, Highland Park, MI 48203",42.40169516,-83.09202519,"45 East Buena Vista Street, Highland Park, MI 48203, United States of America",1,1,1
82749,Highland Park Public School Academy System,131 Pilgrim St,Highland Park,MI,48203,"131 Pilgrim St, Highland Park, MI 48203",42.41114646,-83.10647654,"131 Pilgrim Street, Highland Park, MI 48203, United States of America",1,1,1
82750,Wolverine Academy (SDA),2629 Lenox,Detroit,MI,48215,"2629 Lenox, Detroit, MI 48215",42.379422,-82.957626,"2629 Lenox, Detroit, MI 48215, United States of America",1,1,1
82750,Wolverine Academy (SDA),15255 Mayfield,Detroit,MI,48205,"15255 Mayfield, Detroit, MI 48205",42.422623,-82.96404,"15255 Mayfield, Detroit, MI 48205, United States of America",1,1,1
82750,Wolverine Academy (SDA),2424 North Outer Drive,Saginaw,MI,48601,"2424 North Outer Drive, Saginaw, MI 48601",43.45662827,-83.89632421,"2424 North Outer Drive, Buena Vista Charter Township, MI 48601, United States of America",1,1,1
82751,Michigan Educational Choice Center,20045 Joann St,Detroit,MI,48205,"20045 Joann St, Detroit, MI 48205",42.4442627,-82.99100023,"20045 Joann Street, Detroit, MI 48205, United States of America",1,1,1
82751,Michigan Educational Choice Center,13120 Wildemere St,Detroit,MI,48238,"13120 Wildemere St, Detroit, MI 48238",42.38963,-83.125533,"13120 Wildemere, Detroit, MI 48238, United States of America",0.9,1,0.9
82752,Capstone Academy Charter School (SDA),13330 E Jefferson Ave,Detroit,MI,48215,"13330 E Jefferson Ave, Detroit, MI 48215",42.37087162,-82.9491722,"13330 East Jefferson Avenue, Detroit, MI 48215, United States of America",1,1,1
82752,Capstone Academy Charter School (SDA),5250 John R,Detroit,MI,48202,"5250 John R, Detroit, MI 48202",42.359873,-83.063239,"5250 John R, Detroit, MI 48202, United States of America",1,1,1
82752,Capstone Academy Charter School (SDA),3500 John R Street,Detroit,MI,48201,"3500 John R Street, Detroit, MI 48201",42.34783925,-83.05492662,"Detroit Behavioral Institute, 3500 John R Street, Detroit, MI 48201, United States of America",0.9,1,0.9
82752,Capstone Academy Charter School (SDA),15255 Mayfield,Detroit,MI,48205,"15255 Mayfield, Detroit, MI 48205",42.422623,-82.96404,"15255 Mayfield, Detroit, MI 48205, United States of America",1,1,1
82753,Andrew Young Early College Academy,8100 West Davison,Detroit,MI,48238,"8100 West Davison, Detroit, MI 48238",42.387448,-83.150006,"8100 W Davison, Detroit, MI 48238, United States of America",1,1,1
82754,Tipton Academy,1615 Belton St,Garden City,MI,48135,"1615 Belton St, Garden City, MI 48135",42.32176146,-83.31387686,"1615 Belton Street, Garden City, MI 48135, United States of America",1,1,1
82754,Tipton Academy,29205 Florence St,Garden City,MI,48135,"29205 Florence St, Garden City, MI 48135",42.31481601,-83.32840646,"29205 Florence Street, Garden City, MI 48135, United States of America",1,1,1
82755,Southwest Detroit Community School,4001 29th St,Detroit,MI,48210,"4001 29th St, Detroit                                                     , MI 48210",42.33474285,-83.11007972,"4001 29th Street, Detroit, MI 48210, United States of America",1,1,1
82756,Taylor Preparatory High School,9540 Telegraph Rd,Taylor,MI,48180,"9540 Telegraph Rd, Taylor, MI 48180",42.23791691,-83.26927422,"9540 Telegraph Road, Taylor, MI 48180, United States of America",1,1,1
82757,Grand River Academy,28111 8 Mile Rd,Livonia,MI,48152,"28111 8 Mile Rd, Livonia, MI 48152",42.440053,-83.374281,"33239 8 Mile Road, Livonia, MI 48152, United States of America",0.5,1,1
82758,New School High,46250 Ann Arbor Road,Plymouth,MI,48170,"46250 Ann Arbor Road, Plymouth, MI 48170",42.35811976,-83.49681365,"46250 Ann Arbor Road, Plymouth Charter Township, MI 48170, United States of America",1,1,1
82759,Regents Academy,17715 Brady Street,Redford,MI,48240,"17715 Brady Street, Redford, MI 48240",42.367487,-83.286241,"Brady, Redford Township, MI 48239, United States of America",0.405,0.9,0.81
82760,Cornerstone Jefferson-Douglass Academy,6861 E Nevada St,Detroit,MI,48234,"6861 E Nevada St, Detroit, MI 48234",42.42664541,-83.03185292,"6861 East Nevada Street, Detroit, MI 48234, United States of America",1,1,1
82761,Detroit Prep,2411 Iroquois,Detroit,MI,48214,"2411 Iroquois, Detroit, MI 48214",42.362251,-82.997891,"2411 Iroquois, Detroit, MI 48214, United States of America",1,1,1
82762,Inkster Preparatory Academy,27355 Woodsfield St,Wixom,MI,48141,"27355 Woodsfield St, Wixom, MI 48141",42.306814,-83.309437,"27355 Woodsfield Street, Inkster, MI 48141, United States of America",0.3,1,1
82762,Inkster Preparatory Academy,27355 Woodsfield St,Inkster,MI,48141,"27355 Woodsfield St, Inkster, MI 48141",42.30740127,-83.30973833,"27355 Woodsfield, Inkster, MI 48141, United States of America",0.9,1,0.9
82763,Discovery Creative Pathways,19360 Harper Ave,Harper Woods,MI,48225,"19360 Harper Ave, Harper Woods, MI 48225",42.42791518,-82.92551411,"19360 Harper Avenue, Harper Woods, MI 48225, United States of America",1,1,1
82763,Discovery Creative Pathways,17175 Olympia,Redford,MI,48240,"17175 Olympia, Redford, MI 48240",42.41690365,-83.29444846,"17175 Olympia, Redford Township, MI 48240, United States of America",1,1,1
82764,Detroit Collegiate High School,3100 Elmwood St,Detroit,MI,48207,"3100 Elmwood St, Detroit, MI 48207",42.356493,-83.025479,"3100 Elmwood Street, Detroit, MI 48207, United States of America",1,1,1
82764,Detroit Collegiate High School,3111 Elmwood Street,Detroit,MI,48207,"3111 Elmwood Street, Detroit, MI 48207",42.35646535,-83.02594879,"3111 Elmwood Street, Detroit, MI 48207, United States of America",1,1,1
82765,Pembroke Academy,19940 Mansfield St,Detroit,MI,48235,"19940 Mansfield St, Detroit, MI 48235",42.43806207,-83.20647887,"19940 Mansfield Street, Detroit, MI 48235, United States of America",1,1,1
82766,Westfield Charter Academy,27201 W Chicago,Redford,MI,48239,"27201 W Chicago, Redford, MI 48239",42.362082,-83.312285,"27201 West Chicago Street, Redford, MI 48239, United States of America",0.7,1,0.7
82766,Westfield Charter Academy,23750 Elmira,Redford,MI,48239,"23750 Elmira, Redford, MI 48239",42.369876,-83.27341,"23750 Elmira, Redford, MI 48239, United States of America",1,1,1
82767,Ivywood Classical Academy,14356 Genoa Ct,Plymouth,MI,48170,"14356 Genoa Ct, Plymouth, MI 48170",42.3853372,-83.51389279,"14356 Genoa Court, Plymouth Charter Township, MI 48170, United States of America",1,1,1
82769,Orchard Academy,278 Mack Ave,Detroit,MI,48201,"278 Mack Ave, Detroit, MI 48201",42.34867405,-83.0543696,"278 Mack Avenue, Detroit, MI 48201, United States of America",1,1,1
82770,Sigma Academy for Leadership and Early Middle College,25 Ford St,Highland Park,MI,48203,"25 Ford St, Highland Park, MI 48203",42.40529255,-83.09847971,"25 Ford Street, Highland Park, MI 48203, United States of America",1,1,1
82770,Sigma Academy for Leadership and Early Middle College,8200 W Outer Dr,Detroit,MI,48219,"8200 W Outer Dr, Detroit, MI 48219",42.41928925,-83.22156411,"8200 West Outer Drive, Detroit, MI 48219, United States of America",1,1,1
82771,Royal Academy of Michigan,34540 W Michigan Ave,Wayne,MI,48184,"34540 W Michigan Ave, Wayne, MI 48184",42.2814258,-83.3791826,"34540 West Michigan Avenue, Wayne, MI 48184, United States of America",1,1,1
82772,Fostering Leadership Academy,16511 Delaware Ave,Redford,MI,48240,"16511 Delaware Ave, Redford, MI 48240",42.4088871,-83.3059674,"16511 Delaware Avenue, Redford Township, MI 48239, United States of America",1,1,1
82773,Lincoln-King Adams-Young Academy,306 E 4th St,Royal Oak,MI,48067,"306 E 4th St, Royal Oak, MI 48067",42.4872537,-83.14161203,"306 East 4th Street, Royal Oak, MI 48067, United States of America",1,1,1
82773,Lincoln-King Adams-Young Academy,13130 Grove St,Detroit,MI,48235,"13130 Grove St, Detroit, MI 48235",42.41428518,-83.17458784,"13130 Grove Street, Detroit, MI 48235, United States of America",1,1,1
82773,Lincoln-King Adams-Young Academy,13436 Grove St,Detroit,MI,48235,"13436 Grove St, Detroit, MI 48235",42.41430405,-83.17721632,"13436 Grove Street, Detroit, MI 48235, United States of America",1,1,1
82773,Lincoln-King Adams-Young Academy,17351 Southfield Fwy,Detroit,MI,48235,"17351 Southfield Fwy, Detroit, MI 48235",42.41774942,-83.21845153,"17351 Southfield Freeway, Detroit, MI 48235, United States of America",1,1,1
82774,Explore Academy-Livonia,31100 Plymouth Rd,Livonia,MI,48150,"31100 Plymouth Rd, Livonia, MI 48150",42.3692589,-83.35038704,"31100 Plymouth Road, Livonia, MI 48150, United States of America",1,1,1
82775,KIPP Detroit Imani Academy,19321 W Chicago St,Detroit,MI,48228,"19321 W Chicago St, Detroit, MI 48228",42.36472953,-83.230341,"19321 West Chicago Street, Detroit, MI 48228, United States of America",1,1,1
82776,SER YouthBuild Learning Academy,9215 Michigan Ave,Detroit,MI,48210,"5200 #cker St, Detroit, MI 48126",42.327668,-83.154557,"9215 Michigan Ave, Detroit, MI 48210, United States of America",0.63,1,0.63
82776,SER YouthBuild Learning Academy,5200 #cker St,Dearborn,MI,48126,"5200 #cker St, Dearborn, MI 48126",42.327668,-83.154557,"5200 Stecker Street, Detroit, MI 48216, United States of America",0.63,1,0.63
82776,SER YouthBuild Learning Academy,5555 Conner St # 2716,Detroit,MI,48213,"5555 Conner St # 2716, Detroit, MI 48213",42.39114545,-82.98044302,"5555 Conner Street, Detroit, MI 48213, United States of America",1,1,1
82901,University Public School,2727 2nd Avenue,Detroit,MI,48201,"2727 2nd Avenue, Detroit, MI 48201",42.34021086,-83.05950478,"2727 2nd Avenue, Detroit, MI 48201, United States of America",1,1,1
82902,Casa Richard Academy,2635 Howard St,Detroit,MI,48216,"2635 Howard St, Detroit, MI 48216",42.32113763,-83.07624873,"2635 Howard Street, Detroit, MI 48216, United States of America",1,1,1
82903,Aisha Shule/WEB Dubois Prep. Academy School,20119 Wisconsin St,Detroit,MI,48221,"20119 Wisconsin St, Detroit, MI 48221",42.44142865,-83.15840476,"20119 Wisconsin Street, Detroit, MI 48221, United States of America",1,1,1
82904,Plymouth Educational Center Charter School,1460 E Forest Ave,Detroit,MI,48207,"1460 E Forest Ave, Detroit, MI 48207",42.36013836,-83.04910081,"1460 East Forest Avenue, Detroit, MI 48207, United States of America",1,1,1
82904,Plymouth Educational Center Charter School,7375 Woodward Ave,Detroit,MI,48202,"7375 Woodward Ave, Detroit, MI 48202",42.37134667,-83.07415041,"7375 Woodward Avenue, Detroit, MI 48202, United States of America",1,1,1
82905,Nataki Talibah Schoolhouse of Detroit,19176 Northrop St,Detroit,MI,48219,"19176 Northrop St, Detroit, MI 48219",42.43030666,-83.26191329,"19176 Northrop Street, Detroit, MI 48219, United States of America",1,1,1
82906,Sierra Leone Education Outreach Academy,13477 Eureka,Detroit,MI,48212,"13477 Eureka, Detroit, MI 48212",42.416288,-83.056246,"13477 Eureka, Hamtramck, MI 48212, United States of America",1,1,1
82907,Michigan Technical Academy,23750 Elmira,Redford Township,MI,48239,"23750 Elmira, Redford Township, MI 48239",42.369876,-83.27341,"23750 Elmira, Redford, MI 48239, United States of America",1,1,1
82907,Michigan Technical Academy,19900 Evergreen Rd,Detroit,MI,48219,"19900 Evergreen Rd, Detroit, MI 48219",42.43791435,-83.23845407,"19900 Evergreen Road, Detroit, MI 48219, United States of America",1,1,1
82907,Michigan Technical Academy,19940 Mansfield St,Detroit,MI,48235,"19940 Mansfield St, Detroit, MI 48235",42.43806207,-83.20647887,"19940 Mansfield Street, Detroit, MI 48235, United States of America",1,1,1
82907,Michigan Technical Academy,23750 Elmira,Redford,MI,48239,"23750 Elmira, Redford, MI 48239",42.369876,-83.27341,"23750 Elmira, Redford, MI 48239, United States of America",1,1,1
82908,Thomas-Gist Academy,28955 Rosewood,Inkster,MI,48141,"28955 Rosewood, Inkster, MI 48141",42.298898,-83.326161,"28955 Rosewood, Inkster, MI 48141, United States of America",1,1,1
82908,Thomas-Gist Academy,4825 Dancy,Westland,MI,48185,"4825 Dancy, Westland, MI 48185",42.2725,-83.333249,"4825 Dancy, Westland, MI 48186, United States of America",1,1,1
82909,Detroit West Preparatory Academy,25940 Grand River Ave,Redford,MI,48240,"25940 Grand River Ave, Redford, MI 48240",42.43346553,-83.29917796,"25940 Grand River Avenue, Redford Township, MI 48240, United States of America",1,1,1
82909,Detroit West Preparatory Academy,16418 W. Mcnichols Road,Detroit,MI,48235,"16418 W. Mcnichols Road, Detroit, MI 48235",42.41584153,-83.20922789,"16418 West McNichols Road, Detroit, MI 48235, United States of America",1,1,1
82909,Detroit West Preparatory Academy,21700 Marlow Drive,Oak Park,MI,48237,"21700 Marlow Drive, Oak Park, MI 48237",42.460012,-83.18678,"Oak Park (Oak Park), MI 48237, United States of America",0.25,1,
82910,"Martin Luther King, Jr. Education Center Academy",16827 Appoline St,Detroit,MI,48235,"16827 Appoline St, Detroit, MI 48235",42.414611,-83.171291,"16827 Appoline Street, Detroit, MI 48235, United States of America",1,1,1
82911,Gaudior Academy,27100 Avondale St,Inkster,MI,48141,"27100 Avondale St, Inkster, MI 48141",42.293488,-83.314827,"Inkster (Inkster), MI 48141, United States of America",0.25,1,
82912,Academy of Westland,300 South Henry Ruff Rd,Westland,MI,48186,"300 South Henry Ruff Rd, Westland, MI 48186",42.308373,-83.341915,"300 South Henry Ruff, Westland, MI 48186, United States of America",0.9,1,0.9
82912,Academy of Westland,28500 Avondale,Inkster,MI,48141,"28500 Avondale, Inkster, MI 48141",42.305194,-83.321609,"28500 Avondale, Inkster, MI 48141, United States of America",1,1,1
82913,Woodward Academy,951 East Lafayette St,Detroit,MI,48207,"951 East Lafayette St, Detroit, MI 48207",42.33587608,-83.03704646,"951 East Lafayette Street, Detroit, MI 48207, United States of America",1,1,1
82914,Colin Powell Academy,4800 Coplin St,Detroit,MI,48215,"4800 Coplin St, Detroit, MI 48215",42.3928416,-82.96317744,"4800 Coplin Street, Detroit, MI 48215, United States of America",1,1,1
82914,Colin Powell Academy,19360 Harper Avenue,Harper Woods,MI,48225,"19360 Harper Avenue, Harper Woods, MI 48225",42.42791518,-82.92551411,"19360 Harper Avenue, Harper Woods, MI 48225, United States of America",1,1,1
82915,Eaton Academy,21450 Universal Ave,Eastpointe,MI,48021,"21450 Universal Ave, Eastpointe, MI 48021",42.45557308,-82.95786424,"21450 Universal Avenue, Eastpointe, MI 48021, United States of America",1,1,1
82915,Eaton Academy,7781 Asbury,Detroit,MI,48228,"7781 Asbury, Detroit, MI 48228",42.349611,-83.20657,"7781 Asbury Park, Detroit, MI 48228, United States of America",0.9,1,0.9
82916,River Heights Academy,"P.O. Box 310, 30100 Olmstead",Flat Rock,MI,48134,"P.O. Box 310, 30100 Olmstead, Flat Rock, MI 48134",42.087609,-83.256033,"30100 Olmstead Road, Flat Rock, MI 48134, United States of America",0.9,1,0.9
82917,Michigan Health Academy,5845 Auburn St,Detroit,MI,48228,"5845 Auburn St, Detroit, MI 48228",42.33130465,-83.23297079,"5845 Auburn Street, Detroit, MI 48228, United States of America",1,1,1
82918,Cesar Chavez Academy,4100 Martin St,Detroit,MI,48210,"4100 Martin St, Detroit, MI 48210",42.329004,-83.125845,"4100 Martin Street, Detroit, MI 48210, United States of America",1,1,1
82918,Cesar Chavez Academy,4130 Maxwell St,Detroit,MI,48214,"4130 Maxwell St, Detroit, MI 48214",42.37074159,-83.00618373,"4130 Maxwell Street, Detroit, MI 48214, United States of America",1,1,1
82919,Commonwealth Community Development Academy,13477 Eureka St,Detroit,MI,48212,"13477 Eureka St, Detroit, MI 48212",42.4160853,-83.05537729,"13477 Eureka Street, Detroit, MI 48212, United States of America",1,1,1
82919,Commonwealth Community Development Academy,13477 Eureka St,Hamtramck,MI,48212,"13477 Eureka St, Hamtramck, MI 48212",42.4160853,-83.05537729,"13477 Eureka Street, Detroit, MI 48212, United States of America",1,1,1
82919,Commonwealth Community Development Academy,8735 Schoolcraft Street,Detroit,MI,48238,"8735 Schoolcraft Street, Detroit, MI 48238",42.38847049,-83.15647055,"8735 Schoolcraft Street, Detroit, MI 48238, United States of America",1,1,1
82920,Elbert T. Clark Academy,16151 James Couzens Freeway,Detroit,MI,48221,"16151 James Couzens Freeway, Detroit, MI 48221",42.41025644,-83.16523415,"16151 James Couzens Freeway, Detroit, MI 48221, United States of America",1,1,1
82921,Academy for Business and Technology,19625 Wood St,Melvindale,MI,48122,"19625 Wood St, Melvindale, MI 48122",42.27494627,-83.19616575,"19625 Wood Street, Melvindale, MI 48122, United States of America",1,1,1
82921,Academy for Business and Technology,5277 Calhoun St,Dearborn,MI,48126,"5277 Calhoun St, Dearborn, MI 48126",42.32635881,-83.17497918,"5277 Calhoun Street, Dearborn, MI 48126, United States of America",1,1,1
82922,Nsoroma Institute,20045 Joann St,Detroit,MI,48205,"20045 Joann St, Detroit, MI 48205",42.4442627,-82.99100023,"20045 Joann Street, Detroit, MI 48205, United States of America",1,1,1
82923,Chandler Park Academy,20100 Kelly Rd,Harper Woods,MI,48225,"20100 Kelly Rd, Harper Woods, MI 48225",42.445464,-82.944586,"20100 Kelly Road, Harper Woods, MI 48225, United States of America",1,1,1
82923,Chandler Park Academy,897 Philip Avenue,Detroit,MI,48215,"897 Philip Avenue, Detroit, MI 48215",42.404859,-82.962401,"Philip Avenue, Detroit, MI 48224, United States of America",0.5,1,1
82923,Chandler Park Academy,20200 Kelly Rd,Harper Woods,MI,48225,"20200 Kelly Rd, Harper Woods, MI 48225",42.4461484,-82.9425149,"20200 Kelly Road, Harper Woods, MI 48225, United States of America",1,1,1
82923,Chandler Park Academy,20254 Kelly Rd,Harper Woods,MI,48225,"20254 Kelly Rd, Harper Woods, MI 48225",42.4459747,-82.9405135,"20254 Kelly Road, Harper Woods, MI 48225, United States of America",1,1,1
82923,Chandler Park Academy,19370 Greenfield Street,Detroit,MI,48235,"19370 Greenfield Street, Detroit, MI 48235",42.433605,-83.198989,"19370 Greenfield, Detroit, MI 48235, United States of America",0.9,1,0.9
82924,Marvin L. Winans Academy of Performing Arts,7616 East Nevada St,Detroit,MI,48234,"7616 East Nevada St, Detroit, MI 48234",42.42662866,-83.02508523,"7616 East Nevada Street, Detroit, MI 48234, United States of America",1,1,1
82924,Marvin L. Winans Academy of Performing Arts,9740 Mckinney St,Detroit,MI,48224,"9740 Mckinney St, Detroit, MI 48224",42.41340916,-82.94822834,"9740 McKinney Street, Detroit, MI 48224, United States of America",1,1,1
82924,Marvin L. Winans Academy of Performing Arts,9740 Mckinney,Detroit,MI,48224,"9740 Mckinney, Detroit, MI 48224",42.413497,-82.946169,"9740 Mckinney, Detroit, MI 48224, United States of America",1,1,1
82925,Detroit Community Schools,12675 Burt Rd,Detroit,MI,48223,"12675 Burt Rd, Detroit, MI 48223",42.38010728,-83.24655032,"12675 Burt Road, Detroit, MI 48223, United States of America",1,1,1
82926,Henry Ford Academy,P.O. Box 1148,Dearborn,MI,48121,"P.O. Box 1148, Dearborn, MI 48121",42.3222599,-83.1763145,"Dearborn, MI, United States of America",1,1,
82927,HEART Academy,19800 Anita St,Harper Woods,MI,48225,"19800 Anita St, Harper Woods, MI 48225",42.44922583,-82.92622998,"19800 Anita Street, Harper Woods, MI 48225, United States of America",1,1,1
82928,The Dearborn Academy,19310 Ford Rd,Dearborn,MI,48128,"19310 Ford Rd, Dearborn, MI 48128",42.32893775,-83.23009065,"19310 Ford Road, Dearborn, MI 48128, United States of America",1,1,1
82929,Detroit Academy of Arts and Sciences,2985 E Jefferson Ave,Detroit,MI,48207,"2985 E Jefferson Ave, Detroit, MI 48207",42.33991064,-83.01899082,"2985 East Jefferson Avenue, Detroit, MI 48207, United States of America",1,1,1
82929,Detroit Academy of Arts and Sciences,2260 Medbury St,Detroit,MI,48211,"2260 Medbury St, Detroit, MI 48211",42.372367,-83.04606329,"2260 Medbury Street, Detroit, MI 48211, United States of America",1,1,1
82930,Dove Academy of Detroit,20001 Wexford St,Detroit,MI,48234,"20001 Wexford St, Detroit, MI 48234",42.44160377,-83.06574214,"20001 Wexford Street, Detroit, MI 48234, United States of America",1,1,1
82931,Turtle Island Learning Circle,104 Wilson Hall,Rochester,MI,48309,"104 Wilson Hall, Rochester, MI 48309",42.675868,-83.217708,"Wilson Hall (WH), 371 Wilson Boulevard, Rochester Hills, MI 48309-4486, United States of America",0.567,0.9,
82931,Turtle Island Learning Circle,17321 Telegraph Road #207,Detroit,MI,48219,"17321 Telegraph Road #207, Detroit, MI 48219",42.41717216,-83.27761514,"17321 Telegraph Road, Detroit, MI 48219, United States of America",1,1,1
82932,King Academy,1615 Henry Ruff Road,Inkster,MI,48141,"1615 Henry Ruff Road, Inkster, MI 48141",42.3002654,-83.3395667,"1615 Henry Ruff Road, Inkster, MI 48141, United States of America",1,1,1
82933,Barack Obama Leadership Academy,10800 E Canfield St,Detroit,MI,48214,"10800 E Canfield St, Detroit, MI 48214",42.38066185,-82.98585536,"10800 East Canfield Street, Detroit, MI 48214, United States of America",1,1,1
82934,Benjamin Carson Academy,1326 ST. Antoine,Detroit,MI,48226,"1326 ST. Antoine, Detroit, MI 48226",42.336983,-83.040822,"1326 Saint Antoine Street, Detroit, MI 48226, United States of America",1,1,1
82935,Sankore Marine Immersion HS Academy,3100 E. Jefferson Avenue,Detroit,MI,48207,"3100 E. Jefferson Avenue, Detroit, MI 48207",42.340283,-83.017684,"3100 East Jefferson Avenue, Detroit, MI 48207, United States of America",1,1,1
82936,Charlotte Forten Academy,5690 Cecil Street,Detroit,MI,48210,"5690 Cecil Street, Detroit, MI 48210",42.336212,-83.128331,"Detroit (Detroit), MI 48210, United States of America",0.25,1,
82937,George Crockett Academy,4851 14th St,Detroit,MI,48208,"4851 14th St, Detroit, MI 48208",42.34881323,-83.08633244,"4851 14th Street, Detroit, MI 48208, United States of America",1,1,1
82937,George Crockett Academy,4366 Military St,Detroit,MI,48210,"4366 Military St, Detroit, MI 48210",42.3326358,-83.11981406,"4366 Military Street, Detroit, MI 48210, United States of America",1,1,1
82938,Summit Academy North,18601 Middlebelt Rd,Romulus,MI,48174,"18601 Middlebelt Rd, Romulus, MI 48174",42.16905522,-83.32500207,"18601 Middlebelt Road, Huron Charter Township, MI 48174, United States of America",1,1,1
82939,Pierre Toussaint Academy,2450 South Beatrice St,Detroit,MI,48217,"2450 South Beatrice St, Detroit, MI 48217",42.269343,-83.154443,"2450 Beatrice Street, Detroit, MI 48217, United States of America",0.9,1,0.9
82940,Voyageur Academy,4321 Military St,Detroit,MI,48210,"4321 Military St, Detroit, MI 48210",42.3329363,-83.11860733,"4321 Military Street, Detroit, MI 48210, United States of America",1,1,1
82940,Voyageur Academy,4366 Military St,Detroit,MI,48210,"4366 Military St, Detroit, MI 48210",42.3326358,-83.11981406,"4366 Military Street, Detroit, MI 48210, United States of America",1,1,1
82941,Star International Academy,24425 Hass St,Dearborn Heights,MI,48127,"24425 Hass St, Dearborn Heights, MI 48127",42.33404361,-83.27681631,"24425 Hass Street, Dearborn Heights, MI 48127, United States of America",1,1,1
82941,Star International Academy,45081 Geddes Rd,Canton,MI,48188,"45081 Geddes Rd, Canton, MI 48188",42.27589462,-83.47989489,"45081 Geddes Road, Canton Township, MI 48188, United States of America",1,1,1
82941,Star International Academy,22579 Ann Arbor,Dearborn,MI,48127,"22579 Ann Arbor, Dearborn, MI 48127",42.3386713,-83.25933063,"22579 Ann Arbor Trail, Dearborn Heights, MI 48127, United States of America",0.9,1,0.9
82942,Hope Academy,12121 Broadstreet Ave,Detroit,MI,48204,"12121 Broadstreet Ave, Detroit, MI 48204",42.37888479,-83.13397634,"12121 Broadstreet Avenue, Detroit, MI 48204, United States of America",1,1,1
82943,Weston Preparatory Academy,22930 Chippewa St,Detroit,MI,48219,"22930 Chippewa St, Detroit, MI 48219",42.43871355,-83.26885579,"22930 Chippewa Street, Detroit, MI 48219, United States of America",1,1,1
82944,MI Institute for Construction Trades,1201 E. Grand Boulevard,Detroit,MI,48211,"1201 E. Grand Boulevard, Detroit, MI 48211",42.374695,-83.0197192,"1201 East Grand Boulevard, Detroit, MI 48211, United States of America",1,1,1
82945,Detroit Edison Public School Academy,1903 Wilkins St,Detroit,MI,48207,"1903 Wilkins St, Detroit, MI 48207",42.3529801,-83.03777257,"1903 Wilkins Street, Detroit, MI 48207, United States of America",1,1,1
82945,Detroit Edison Public School Academy,3402 Saint Aubin St,Detroit,MI,48207,"3402 Saint Aubin St, Detroit, MI 48207",42.35287873,-83.03659345,"3402 Saint Aubin Street, Detroit, MI 48207, United States of America",1,1,1
82946,New Horizon Academy,115 State Street,Detroit,MI,48226,"115 State Street, Detroit, MI 48226",42.3324375,-83.049215,"115 State Street, Detroit, MI 48226, United States of America",1,1,1
82947,David Ellis Academy,18977 Schaefer Hwy,Detroit,MI,48235,"18977 Schaefer Hwy, Detroit, MI 48235",42.43000088,-83.18055801,"18977 Schaefer Highway, Detroit, MI 48235, United States of America",1,1,1
82947,David Ellis Academy,23500 W 7 Mile Rd,Detroit,MI,48219,"23500 W 7 Mile Rd, Detroit, MI 48219",42.429177,-83.271256,"23500 West 7 Mile Road, Detroit, MI 48219, United States of America",1,1,1
82948,Ross-Hill Academy,3111 Elmwood St,Detroit,MI,48207,"3111 Elmwood St, Detroit, MI 48207",42.35646535,-83.02594879,"3111 Elmwood Street, Detroit, MI 48207, United States of America",1,1,1
82949,Center for Literacy and Creativity,18401 West Mcnichols Rd,Detroit,MI,48219,"18401 West Mcnichols Rd, Detroit, MI 48219",42.41523955,-83.22326216,"18401 West McNichols Road, Detroit, MI 48219, United States of America",1,1,1
82950,Universal Academy,4833 Ogden St,Detroit,MI,48210,"4833 Ogden St, Detroit, MI 48210",42.328544,-83.145398,"4833 Ogden Street, Detroit, MI 48210, United States of America",1,1,1
82952,Applied Technology Academy,4801 Oakman,Dearborn,MI,48126,"4801 Oakman, Dearborn, MI 48126",42.3224688,-83.16824981,"Advanced Technology Academy, 4801 Oakman Boulevard, Dearborn, MI 48126, United States of America",0.9,1,0.9
82953,Detroit Service Learning Academy,21605 W 7 Mile Rd,Detroit,MI,48219,"21605 W 7 Mile Rd, Detroit, MI 48219",42.42908422,-83.25614027,"21605 West 7 Mile Road, Detroit, MI 48219, United States of America",1,1,1
82953,Detroit Service Learning Academy,21700 Marlow St,Oak Park,MI,48237,"21700 Marlow St, Oak Park, MI 48237",42.454112,-83.195627,"21700 Marlow Street, Oak Park, MI 48237, United States of America",1,1,1
82953,Detroit Service Learning Academy,25490 Grand River Ave,Redford,MI,48240,"25490 Grand River Ave, Redford, MI 48240",42.43105031,-83.29193255,"25490 Grand River Avenue, Redford Township, MI 48240, United States of America",1,1,1
82954,Beacon International Academy,1021 Clairpointe,Detroit,MI,48215,"1021 Clairpointe, Detroit, MI 48215",42.3663803,-82.9590324,"1021 Clairpointe Street, Detroit, MI 48215, United States of America",0.9,1,0.9
82955,Allen Academy,8666 Quincy St,Detroit,MI,48204,"8666 Quincy St, Detroit, MI 48204",42.36438135,-83.11960976,"8666 Quincy Street, Detroit, MI 48204, United States of America",1,1,1
82955,Allen Academy,14595 Heyden,Detroit,MI,48223,"14595 Heyden, Detroit, MI 48223",42.394834,-83.23960047,"New St. Paul Head Start, 14595 Heyden Street, Detroit, MI 48223, United States of America",0.9,1,0.9
82956,Old Redford Academy,17195 Redford St,Detroit,MI,48219,"17195 Redford St, Detroit, MI 48219",42.41544432,-83.26086851,"17195 Redford Street, Detroit, MI 48219, United States of America",1,1,1
82956,Old Redford Academy,17226 Redford Avenue,Detroit,MI,48219,"17226 Redford Avenue, Detroit, MI 48219",42.41666078,-83.28283271,"17226 Santa Maria Avenue, Detroit, MI 48219, United States of America",0.81,1,0.81
82956,Old Redford Academy,8001 W Outer Dr,Detroit,MI,48235,"8001 W Outer Dr, Detroit, MI 48235",42.41938908,-83.21690988,"8001 West Outer Drive, Detroit, MI 48235, United States of America",1,1,1
82956,Old Redford Academy,22122 W Mcnichols Rd,Detroit,MI,48219,"22122 W Mcnichols Rd, Detroit, MI 48219",42.41481949,-83.25907423,"22122 West McNichols Road, Detroit, MI 48219, United States of America",1,1,1
82957,Hope of Detroit Academy,4443 N Campbell St,Detroit,MI,48210,"4443 N Campbell St, Detroit, MI 48210",42.33478464,-83.11676424,"4443 North Campbell Street, Detroit, MI 48210, United States of America",1,1,1
82957,Hope of Detroit Academy,4444 35th St,Detroit,MI,48210,"4444 35th St, Detroit, MI 48210",42.3357243,-83.11563768,"4444 35th Street, Detroit, MI 48210, United States of America",1,1,1
82957,Hope of Detroit Academy,4366 Military St,Detroit,MI,48210,"4366 Military St, Detroit, MI 48210",42.3326358,-83.11981406,"4366 Military Street, Detroit, MI 48210, United States of America",1,1,1
82958,Joy Preparatory Academy,15055 Dexter Ave,Detroit,MI,48238,"15055 Dexter Ave, Detroit, MI 48238",42.40111178,-83.13563088,"15055 Dexter Avenue, Detroit, MI 48238, United States of America",1,1,1
82958,Joy Preparatory Academy,1129 Oakman Blvd,Detroit,MI,48238,"1129 Oakman Blvd, Detroit, MI 48238",42.40077483,-83.11765517,"1129 Oakman Boulevard, Detroit, MI 48238, United States of America",1,1,1
82959,West Village Academy,3530 Westwood St,Dearborn,MI,48124,"3530 Westwood St, Dearborn, MI 48124",42.28484463,-83.2806019,"3530 Westwood Street, Dearborn, MI 48124, United States of America",1,1,1
82959,West Village Academy,9331 Grandville,Detroit,MI,48228,"9331 Grandville, Detroit, MI 48228",42.36335255,-83.23007985,"9331 Grandville Avenue, Detroit, MI 48228, United States of America",0.9,1,0.9
82960,Cherry Hill School of Performing Arts,28500 Avondale St,Inkster,MI,48141,"28500 Avondale St, Inkster, MI 48141",42.293488,-83.314827,"Inkster (Inkster), MI 48141, United States of America",0.25,1,
82961,Academy of Inkster,28500 Avondale St,Inkster,MI,48141,"28500 Avondale St, Inkster, MI 48141",42.293488,-83.314827,"Inkster (Inkster), MI 48141, United States of America",0.25,1,
82962,New Beginnings Academy,211 East Michigan Ave,Ypsilanti,MI,48198,"211 East Michigan Ave, Ypsilanti, MI 48198",42.24006602,-83.60948895,"211 East Michigan Avenue, Ypsilanti, MI 48198, United States of America",1,1,1
82962,New Beginnings Academy,211 E Michigan,Ypsilanti,MI,48197,"211 E Michigan, Ypsilanti, MI 48197",42.241669,-83.606664,"211 East Michigan Avenue, Ypsilanti, MI 48198, United States of America",0.7,1,0.7
82963,George Washington Carver Academy,14510 2nd Ave,Highland Park,MI,48203,"14510 2nd Ave, Highland Park, MI 48203",42.40756753,-83.10263394,"14510 2nd Avenue, Highland Park, MI 48203, United States of America",1,1,1
82964,Detroit Midtown Academy,950 Selden St,Detroit,MI,48201,"950 Selden St, Detroit, MI 48201",42.34630902,-83.06833806,"950 Selden Street, Detroit, MI 48201, United States of America",1,1,1
82965,University Preparatory Academy,600 Antoinette,Detroit,MI,48202,"600 Antoinette, Detroit, MI 48202",42.362604,-83.073615,"600 Antoinette, Detroit, MI 48202, United States of America",1,1,1
82965,University Preparatory Academy,5310 ST. Antoine,Detroit,MI,48202,"5310 ST. Antoine, Detroit, MI 48202",42.362363,-83.058076,"5310 Saint Antoine Street, Detroit, MI 48202, United States of America",1,1,1
82965,University Preparatory Academy,957 Holden,Detroit,MI,48202,"957 Holden, Detroit, MI 48202",42.361674,-83.077094,"957 Holden, Detroit, MI 48202, United States of America",1,1,1
82966,Detroit Advantage Academy,9881 Mendota Street,Detroit,MI,48204,"9881 Mendota Street, Detroit, MI 48204",42.3687321,-83.16451824,"9881 Mendota Street, Detroit, MI 48204, United States of America",1,1,1
82967,Metro Charter Academy,34800 Ecorse Rd,Romulus,MI,48174,"34800 Ecorse Rd, Romulus, MI 48174",42.25221157,-83.3812034,"34800 Ecorse Road, Romulus, MI 48174, United States of America",1,1,1
82968,Canton Charter Academy,49100 Ford Rd,Canton,MI,48187,"49100 Ford Rd, Canton, MI 48187",42.32096987,-83.5205118,"49100 Ford Road, Canton Township, MI 48187, United States of America",1,1,1
82969,Creative Montessori Academy,12701 Mccann St,Southgate,MI,48195,"12701 Mccann St, Southgate, MI 48195",42.21602067,-83.20974313,"12701 McCann Street, Southgate, MI 48195, United States of America",1,1,1
82970,Warrendale Charter Academy,19400 Sawyer St,Detroit,MI,48228,"19400 Sawyer St, Detroit, MI 48228",42.346945,-83.230832,"19400 Sawyer Street, Detroit, MI 48228, United States of America",1,1,1
82971,Blanche Kelso Bruce Academy,8045 2nd Ave,Detroit,MI,48202,"8045 2nd Ave, Detroit, MI 48202",42.37363925,-83.07974895,"8045 2nd Avenue, Detroit, MI 48202, United States of America",1,1,1
82971,Blanche Kelso Bruce Academy,17200 Rowe,Detroit,MI,48205,"17200 Rowe, Detroit, MI 48205",42.421711,-83.002307,"17200 Rowe, Detroit, MI 48205, United States of America",1,1,1
82971,Blanche Kelso Bruce Academy,5555 Conner St,Detroit,MI,48213,"5555 Conner St, Detroit, MI 48213",42.39114545,-82.98044302,"5555 Conner Street, Detroit, MI 48213, United States of America",1,1,1
82971,Blanche Kelso Bruce Academy,609 East Grand Blvd,Detroit,MI,48207,"609 East Grand Blvd, Detroit, MI 48207",42.36032988,-83.01070325,"609 East Grand Boulevard, Detroit, MI 48207, United States of America",1,1,1
82971,Blanche Kelso Bruce Academy,1326 Saint Antoine St,Detroit,MI,48226,"1326 Saint Antoine St, Detroit, MI 48226",42.3369579,-83.0405365,"1326 Saint Antoine Street, Detroit, MI 48226, United States of America",1,1,1
82971,Blanche Kelso Bruce Academy,8333 Townsend St,Detroit,MI,48213,"8333 Townsend St, Detroit, MI 48213",42.38917671,-83.02415547,"8333 Townsend Street, Detroit, MI 48213, United States of America",1,1,1
82971,Blanche Kelso Bruce Academy,2750 Selden,Detroit,MI,48208,"2750 Selden, Detroit, MI 48208",42.34035695,-83.08958512,"Catherine Ferguson Academy for Young Women, 2750 Selden Street, Detroit, MI 48208, United States of America",0.9,1,0.9
82971,Blanche Kelso Bruce Academy,330 Glendale,Highland Park,MI,48203,"330 Glendale, Highland Park, MI 48203",42.397324,-83.105744,"330 Glendale Avenue, Detroit, MI 48203, United States of America",0.9,1,0.9
82971,Blanche Kelso Bruce Academy,4707 ST. Antoine BLVD.,Detroit,MI,48201,"4707 ST. Antoine BLVD., Detroit, MI 48201",42.35705,-83.056461,"4707 St Antoine, Detroit, MI 48201, United States of America",0.9,1,0.9
82971,Blanche Kelso Bruce Academy,3500 John R,Detroit,MI,48201,"3500 John R, Detroit, MI 48201",42.34783925,-83.05492662,"Detroit Behavioral Institute, 3500 John R Street, Detroit, MI 48201, United States of America",0.9,1,0.9
82971,Blanche Kelso Bruce Academy,9881 Mendota,Detroit,MI,48204,"9881 Mendota, Detroit, MI 48204",42.3680805,-83.16496916,"Detroit Advantage Academy, 9881 Mendota Avenue, Detroit, MI 48204, United States of America",0.9,1,0.9
82971,Blanche Kelso Bruce Academy,4151 Seminole,Detroit,MI,48826,"4151 Seminole, Detroit, MI 48826",42.371388,-83.006162,"4151 Seminole, Detroit, MI 48214, United States of America",1,1,1
82971,Blanche Kelso Bruce Academy,15255 Mayfield St,Detroit,MI,48205,"15255 Mayfield St, Detroit, MI 48205",42.42247935,-82.96435294,"15255 Mayfield Street, Detroit, MI 48205, United States of America",1,1,1
82971,Blanche Kelso Bruce Academy,1200 Alter Rd,Detroit,MI,48215,"1200 Alter Rd, Detroit, MI 48215",42.376378,-82.940403,"1200 Alter Road, Detroit, MI 48215, United States of America",1,1,1
82971,Blanche Kelso Bruce Academy,2629 Lenox St,Detroit,MI,48215,"2629 Lenox St, Detroit, MI 48215",42.37866593,-82.95689823,"2629 Lenox Street, Detroit, MI 48215, United States of America",1,1,1
82972,Metropolitan Transitional Academy,3414 Ash,Inkster,MI,48141,"3414 Ash, Inkster, MI 48141",42.2857894,-83.3172684,"3414 Ash Street, Inkster, MI 48141, United States of America",0.9,1,0.9
82973,Trillium Academy,15740 Racho Blvd,Taylor,MI,48180,"15740 Racho Blvd, Taylor, MI 48180",42.191339,-83.250243,"15740 Racho, Taylor, MI 48180, United States of America",0.9,1,0.9
82974,Detroit Merit Charter Academy,1091 Alter Rd,Detroit,MI,48215,"1091 Alter Rd, Detroit, MI 48215",42.37546491,-82.94004527,"1091 Alter Road, Detroit, MI 48215, United States of America",1,1,1
82975,Riverside Academy,6409 Schaefer Rd,Dearborn,MI,48126,"6409 Schaefer Rd, Dearborn, MI 48126",42.33698761,-83.1766492,"6409 Schaefer Road, Dearborn, MI 48126, United States of America",1,1,1
82975,Riverside Academy,7124 Miller Rd,Dearborn,MI,48126,"7124 Miller Rd, Dearborn, MI 48126",42.3435414,-83.16693121,"7124 Miller Road, Dearborn, MI 48126, United States of America",1,1,1
82975,Riverside Academy,7050 Pinehurst St,Dearborn,MI,48126,"7050 Pinehurst St, Dearborn, MI 48126",42.34304088,-83.16450993,"7050 Pinehurst Street, Dearborn, MI 48126, United States of America",1,1,1
82976,Keystone Academy,47925 Bemis Rd,Belleville,MI,48111,"47925 Bemis Rd, Belleville, MI 48111",42.1733409,-83.50642523,"Keystone Academy, 47925 Bemis Road, Belleville, MI 48111, United States of America",1,1,1
82977,Hamtramck Academy,11420 Conant St,Hamtramck,MI,48212,"11420 Conant St, Hamtramck, MI 48212",42.4034591,-83.05348792,"11420 Conant Street, Hamtramck, MI 48212, United States of America",1,1,1
82978,Life Skills Center of Metropolitan Detroit,3100 East Jefferson Ave,Detroit,MI,48207,"3100 East Jefferson Ave, Detroit, MI 48207",42.340283,-83.017684,"3100 East Jefferson Avenue, Detroit, MI 48207, United States of America",1,1,1
82979,Detroit Enterprise Academy,11224 Kercheval St,Detroit,MI,48214,"11224 Kercheval St, Detroit, MI 48214",42.3689149,-82.97315378,"11224 Kercheval Street, Detroit, MI 48214, United States of America",1,1,1
82980,"Business Entrepreneurship, Science, Tech. Academy",200 Highland St,Highland Park,MI,48203,"200 Highland St, Highland Park, MI 48203",42.395769,-83.098113,"200 Highland Street, Highland Park, MI 48203, United States of America",1,1,1
82981,American Montessori Academy,14800 Middlebelt Rd,Livonia,MI,48154,"14800 Middlebelt Rd, Livonia, MI 48154",42.39298892,-83.33411247,"14800 Middlebelt Road, Livonia, MI 48154, United States of America",1,1,1
82981,American Montessori Academy,30055 Joy Rd,Westland,MI,48185,"30055 Joy Rd, Westland, MI 48185",42.35446745,-83.33928369,"30055 Joy Road, Livonia, MI 48185, United States of America",1,1,1
82982,Universal Learning Academy,28015 Joy Rd,Westland,MI,48185,"28015 Joy Rd, Westland, MI 48185",42.35497458,-83.31852708,"28015 Joy Road, Westland, MI 48185, United States of America",1,1,1
82982,Universal Learning Academy,22579 Ann Arbor Trail,Dearborn Heights,MI,48127,"22579 Ann Arbor Trail, Dearborn Heights, MI 48127",42.3386713,-83.25933063,"22579 Ann Arbor Trail, Dearborn Heights, MI 48127, United States of America",1,1,1
82982,Universal Learning Academy,22579 Ann Arbor Trl,Dearborn Heights,MI,48127,"22579 Ann Arbor Trl, Dearborn Heights, MI 48127",42.3386713,-83.25933063,"22579 Ann Arbor Trail, Dearborn Heights, MI 48127, United States of America",1,1,1
82983,Bridge Academy,9600 Buffalo St,Hamtramck,MI,48212,"9600 Buffalo St, Hamtramck, MI 48212",42.399612,-83.046986,"9600 Buffalo Street, Hamtramck, MI 48212, United States of America",1,1,1
82983,Bridge Academy,3120 Carpenter St,Hamtramck,MI,48212,"3120 Carpenter St, Hamtramck, MI 48212",42.40713712,-83.06184253,"3120 Carpenter Street, Hamtramck, MI 48212, United States of America",1,1,1
82983,Bridge Academy,3105 Carpenter St,Detroit,MI,48212,"3105 Carpenter St, Detroit, MI 48212",42.40727222,-83.06197631,"3105 Carpenter Street, Detroit, MI 48212, United States of America",1,1,1
82984,Dr. Charles Drew Academy,50 West Josephine St,Ecorse,MI,48229,"50 West Josephine St, Ecorse, MI 48229",42.25109894,-83.14392129,"50 West Josephine Street, Ecorse, MI 48229, United States of America",1,1,1
82985,Detroit Premier Academy,7781 Asbury Park,Detroit,MI,48228,"7781 Asbury Park, Detroit, MI 48228",42.34901156,-83.20600204,"7781 Asbury Park, Detroit, MI 48228, United States of America",1,1,1
82986,Hanley International Academy,2400 Denton St,Hamtramck,MI,48212,"2400 Denton St, Hamtramck, MI 48212",42.38600095,-83.0535168,"2400 Denton Street, Hamtramck, MI 48212, United States of America",1,1,1
82987,Frontier International Academy,13200 Conant St,Detroit,MI,48212,"13200 Conant St, Detroit, MI 48212",42.41402069,-83.06034722,"13200 Conant Street, Detroit, MI 48212, United States of America",1,1,1
82987,Frontier International Academy,28111 Imperial Dr,Warren,MI,48093,"28111 Imperial Dr, Warren, MI 48093",42.50300022,-83.00068097,"28111 Imperial Drive, Warren, MI 48093, United States of America",1,1,1
82988,Discovery Arts and Technology PSA,27355 Woodsfield St,Inkster,MI,48141,"27355 Woodsfield St, Inkster, MI 48141",42.30740127,-83.30973833,"27355 Woodsfield, Inkster, MI 48141, United States of America",0.9,1,0.9
82989,Covenant House Academy Southwest,1450 25th Street,Detroit,MI,48216,"1450 25th Street, Detroit, MI 48216",42.32056276,-83.0858271,"1450 25th Street, Detroit, MI 48216, United States of America",1,1,1
82990,Covenant House Academy East,7600 Goethe St,Detroit,MI,48214,"7600 Goethe St, Detroit, MI 48214",42.363642,-83.008118,"7600 Goethe Street, Detroit, MI 48214, United States of America",1,1,1
82991,Covenant Schools Detroit,1450 25th St,Detroit,MI,48216,"1450 25th St, Detroit, MI 48216",42.32056276,-83.0858271,"1450 25th Street, Detroit, MI 48216, United States of America",1,1,1
82991,Covenant Schools Detroit,2959 Martin Luther King Jr Blvd,Detroit,MI,48208,"2959 Martin Luther King Jr Blvd, Detroit, MI 48208",42.33672353,-83.08954469,"2959 Martin Luther King Junior Boulevard, Detroit, MI 48208, United States of America",1,1,1
82991,Covenant Schools Detroit,9100 Gratiot Ave,Detroit,MI,48213,"9100 Gratiot Ave, Detroit, MI 48213",42.38846079,-83.00819281,"9100 Gratiot Avenue, Detroit, MI 48213, United States of America",1,1,1
82991,Covenant Schools Detroit,1961 Lincoln St,Highland Park,MI,48203,"1961 Lincoln St, Highland Park, MI 48203",42.39814288,-83.10616976,"1961 Lincoln Street, Highland Park, MI 48203, United States of America",1,1,1
82992,Northpointe Academy,53 Candler St,Highland Park,MI,48203,"53 Candler St, Highland Park, MI 48203",42.41473867,-83.100966,"53 Candler Street, Highland Park, MI 48203, United States of America",1,1,1
82994,David Ellis Academy West,19800 Beech Daly Rd,Redford,MI,48240,"19800 Beech Daly Rd, Redford, MI 48240",42.4349145,-83.29716947,"19800 Beech Daly Road, Redford Township, MI 48240, United States of America",1,1,1
82995,Taylor Exemplar Academy,26727 Goddard Rd,Taylor,MI,48180,"26727 Goddard Rd, Taylor, MI 48180",42.22522703,-83.29989218,"26727 Goddard Road, Taylor, MI 48180, United States of America",1,1,1
82996,Clara B. Ford Academy (SDA),20651 West Warren St,Dearborn Heights,MI,48127,"20651 West Warren St, Dearborn Heights, MI 48127",42.3402474,-83.2438701,"Clara B. Ford Academy, 20651 Whitlock Drive, Dearborn Heights, MI 48127, United States of America",1,1,1
82997,Flagship Charter Academy,13661 Wisconsin St,Detroit,MI,48238,"13661 Wisconsin St, Detroit, MI 48238",42.38740084,-83.15616176,"13661 Wisconsin Street, Detroit, MI 48238, United States of America",1,1,1
82998,ACE Academy (SDA),330 Glendale St,Highland Park,MI,48203,"330 Glendale St, Highland Park, MI 48203",42.404236,-83.096018,"Highland Park (Highland Park), MI, United States of America",0.25,1,
82998,ACE Academy (SDA),13330 E. Jefferson Avenue,Detroit,MI,48215,"13330 E. Jefferson Avenue, Detroit, MI 48215",42.37087162,-82.9491722,"13330 East Jefferson Avenue, Detroit, MI 48215, United States of America",1,1,1
82998,ACE Academy (SDA),15127 Woodward Ave,Highland Park,MI,48203,"15127 Woodward Ave, Highland Park, MI 48203",42.41097249,-83.10086944,"15127 Woodward Avenue, Highland Park, MI 48203, United States of America",1,1,1
82998,ACE Academy (SDA),3500 John R,Detroit,MI,48201,"3500 John R, Detroit, MI 48201",42.34783925,-83.05492662,"Detroit Behavioral Institute, 3500 John R Street, Detroit, MI 48201, United States of America",0.9,1,0.9
82998,ACE Academy (SDA),330 Glendale,Highland Park,MI,48203,"330 Glendale, Highland Park, MI 48203",42.397324,-83.105744,"330 Glendale Avenue, Detroit, MI 48203, United States of America",0.9,1,0.9
83900,Highpoint Virtual Academy of Michigan,210 E Mesick Ave,Mesick,MI,49668,"210 E Mesick Ave, Mesick, MI 49668",44.40558656,-85.71137355,"210 East Mesick Avenue, Mesick, MI 49668, United States of America",1,1,1